{
  "type": "FeatureCollection",
  "features": [
    {
      "type": "Feature",
      "geometry": {
        "type": "LineString",
        "coordinates": [
          [-70.56069468471907, -33.393276461229384, 568.0428614617264],
          [-70.56090429618646, -33.393047704333775, 561.9159253923627],
          [-70.56099950165469, -33.39318372204592, 572.0429723065453],
          [-70.56010672335093, -33.393752801274694, 570.5651118470319],
          [-70.55950959631147, -33.39407485297653, 574.2955510050697],
          [-70.55949123965064, -33.394045218074304, 563.045561777134],
          [-70.56268602418447, -33.39166397349585, 568.0971777715054],
          [-70.56067078950942, -33.391210668009975, 576.2553901710249],
          [-70.56240798126169, -33.39589287726968, 564.7019008920909],
          [-70.55949724296435, -33.394455017623365, 561.208170219643],
          [-70.5596636142779, -33.39036913360721, 561.7613503659205],
          [-70.56039024608961, -33.39624940186561, 574.2641271221928],
          [-70.5617450034212, -33.39047144153763, 565.9998949893467],
          [-70.56347194293747, -33.39467677354219, 572.4715267208447],
          [-70.56276444734169, -33.39190700021083, 568.2040128244624],
          [-70.55793609865658, -33.393635386740634, 568.5475839990802],
          [-70.55727018630607, -33.39136117017913, 574.1654306256447],
          [-70.56609741468058, -33.398735259126084, 572.0185062847156],
          [-70.55469576472022, -33.39064522137661, 568.9503529479516],
          [-70.56423620139934, -33.39882113153636, 572.2240599726834],
          [-70.5667600381583, -33.39005176536109, 574.5824606504614],
          [-70.56529715263764, -33.39869245278335, 566.5096233726596],
          [-70.55365339306437, -33.397756421070326, 562.4691744474876],
          [-70.56803110063626, -33.3982829813875, 573.6135965455222],
          [-70.56846385565855, -33.39837506371447, 566.5535116482822],
          [-70.56096789370649, -33.392677383293865, 568.0586406880624],
          [-70.55339851640707, -33.38567334620234, 565.4717194103811],
          [-70.55537765550132, -33.38558514046085, 574.2894717071938],
          [-70.56409573415004, -33.397423584450145, 569.4721255714068],
          [-70.56749297837372, -33.39217411043344, 570.3745656869299],
          [-70.56223857103144, -33.39889477960952, 563.7781462000139],
          [-70.55807180800835, -33.384903255018706, 570.0179632079168],
          [-70.57122514924018, -33.39682890034907, 568.4516283063684],
          [-70.5660383399476, -33.38258219308458, 564.2656471398202],
          [-70.55740863812095, -33.388946924232144, 562.9092466473456],
          [-70.55924005843292, -33.3822336391565, 569.3340864296962],
          [-70.56470814533337, -33.40434958535747, 578.0536012221302],
          [-70.55308120859299, -33.403839398117796, 576.2304788514045],
          [-70.57059178189402, -33.39311221030113, 569.9450380156179],
          [-70.57309546444671, -33.39962714000855, 567.1491543100998]
        ]
      },
      "properties": { "waterway": "stream", "width": 4.621269357785122e-5, "elevation": 570.0 }
    },
    {
      "type": "Feature",
      "geometry": {
        "type": "LineString",
        "coordinates": [
          [-70.52449453769357, -33.38818538800114, 572.5107597456147],
          [-70.52478395600033, -33.388038815099456, 577.0360378741264],
          [-70.52509216778296, -33.388144168942546, 575.1323297233627],
          [-70.52402530732506, -33.38825893725348, 563.9152650935049],
          [-70.52399985090389, -33.38830843211861, 577.0913929428493],
          [-70.52410196905228, -33.38667007924057, 570.9896892383102],
          [-70.5256078252162, -33.38996644232727, 564.290786170158],
          [-70.5262755672678, -33.38980341781553, 568.5196520965194],
          [-70.52562132565421, -33.38642883346338, 563.2912768386427],
          [-70.52653611650346, -33.38648042173641, 575.2678732284189],
          [-70.52344397201838, -33.39102306093329, 566.2223610070475],
          [-70.52150324572277, -33.38459977534176, 567.6667465820882],
          [-70.52525843570001, -33.384927368574104, 578.4465497694887],
          [-70.52561383280683, -33.387799941967074, 569.6895508443753],
          [-70.52468127061384, -33.38435726000082, 568.0938698536464],
          [-70.52802176090151, -33.385726203831695, 569.5555458757639],
          [-70.52125696766025, -33.3860530382947, 568.5660766329473],
          [-70.52258229252513, -33.38722271935599, 567.8415689944031],
          [-70.52051545749606, -33.38625651430058, 564.1580299553494],
          [-70.52663623680704, -33.387009329922996, 566.8323140007051],
          [-70.51888702632463, -33.3839184164185, 568.013203159479],
          [-70.51964405227481, -33.388988114608075, 574.3538316951629],
          [-70.52844519816459, -33.38534121348066, 571.3122798326085],
          [-70.52615446379184, -33.391416653367365, 566.1785741613922],
          [-70.5291488660872, -33.388302834697036, 567.1040172647828],
          [-70.52682125889547, -33.39479365004078, 571.7858826676935],
          [-70.5276563770906, -33.38853829932981, 568.2075142420385]
        ]
      },
      "properties": { "waterway": "stream", "width": 4.232235376447381e-5, "elevation": 570.0 }
    },
    {
      "type": "Feature",
      "geometry": {
        "type": "LineString",
        "coordinates": [
          [-70.5311875719978, -33.38156441005223, 566.5468354786101],
          [-70.53141964606289, -33.38143057369289, 573.6886953727393],
          [-70.53175072716422, -33.382078392242846, 569.6221587468716],
          [-70.53195702914911, -33.38081745909875, 575.7520990230212],
          [-70.53043502840467, -33.38063322796656, 577.6745774839252],
          [-70.53067933138384, -33.38308255724574, 564.2236825110621],
          [-70.53241573581323, -33.382847392279714, 572.2318433514546],
          [-70.53106733708687, -33.381928866275985, 565.8776289299602],
          [-70.53369472045709, -33.37968583799556, 570.8726344271479],
          [-70.53052343519083, -33.37977593974682, 575.7494036677011],
          [-70.52838718344553, -33.3839939019505, 566.1248209369345],
          [-70.53010769137575, -33.38195677099637, 575.3516548923919],
          [-70.52778022659739, -33.38394234214383, 567.3086142292875],
          [-70.53367055492153, -33.37999699365489, 571.6067037435989],
          [-70.53535998147089, -33.38031058660835, 570.6298327469441],
          [-70.52656957161308, -33.380205445430086, 568.5289928810356],
          [-70.533837521028, -33.37861524538953, 561.9514214550569],
          [-70.53034471483537, -33.377931014526105, 575.8474179006811],
          [-70.52701338527336, -33.37703532526796, 576.3929822084424],
          [-70.52860392577227, -33.377531991239266, 574.4220548945503],
          [-70.53341718980215, -33.377869272883444, 575.2137089460264],
          [-70.53491782902934, -33.37877341121125, 567.4470933491799],
          [-70.52927750094726, -33.38326598012127, 568.1397770104845],
          [-70.53034334241457, -33.38157203810823, 569.9411007328756],
          [-70.52976625212331, -33.38822231190339, 564.008414472596],
          [-70.52329537813168, -33.387125225718286, 565.8499532832263],
          [-70.53231784917988, -33.38411808586822, 564.6160771791101],
          [-70.53196140258741, -33.37456788187355, 566.516344512271],
          [-70.5261766526321, -33.38083339649233, 574.9072495628799],
          [-70.54056193073797, -33.38342838131052, 570.6508858338723],
          [-70.53058150467558, -33.38035863055516, 574.5983117765287],
          [-70.53738751036452, -33.37933765923858, 561.6049720693868],
          [-70.5391104178223, -33.37375609014041, 574.1234924561496],
          [-70.52393520848614, -33.384984184014215, 562.6108074471631],
          [-70.52939311390675, -33.389064441834385, 567.5609152093851],
          [-70.52557519588565, -33.37763529643032, 571.8939504797171],
          [-70.53602015421582, -33.3719233146219, 564.7656938006403],
          [-70.52412149144048, -33.374994794659315, 574.9156779400311]
        ]
      },
      "properties": { "waterway": "stream", "width": 4.2102879004315066e-5, "elevation": 570.0 }
    },
    {
      "type": "Feature",
      "geometry": {
        "type": "LineString",
        "coordinates": [
          [-70.5411518615002, -33.39686942751, 575.948200352653],
          [-70.54124366135, -33.39712409076014, 571.4010343968009],
          [-70.5412481944126, -33.39635766731778, 569.8755201876145],
          [-70.5409599701603, -33.39700241273843, 571.2867666378916],
          [-70.54231819794887, -33.39664885285146, 566.2936866137621],
          [-70.54062229241924, -33.395939789338385, 568.5529846079435],
          [-70.53969077005466, -33.396423405648434, 569.81283139457],
          [-70.53978429041656, -33.39660688066458, 570.9315637454465],
          [-70.54342927991613, -33.39679886666585, 561.4592526775411],
          [-70.5400944237957, -33.39821847009012, 570.6836721647286],
          [-70.5418046249578, -33.39826677826919, 567.1316684513167],
          [-70.54313026940035, -33.396909845989676, 579.6359274233233],
          [-70.53785327466542, -33.39488723527471, 566.1661522471782],
          [-70.53928621522456, -33.39968270677962, 572.7033498209544],
          [-70.54559505265597, -33.39695191724819, 572.8180857301768],
          [-70.5406223152826, -33.397448472587044, 563.8435205364875],
          [-70.53778844701338, -33.3960047247059, 559.0397094586082],
          [-70.54110063145002, -33.39291340239045, 563.3411096094915],
          [-70.54612689926306, -33.395192905739535, 573.7883038658686],
          [-70.53937738903984, -33.40000339244901, 565.175840632927],
          [-70.5366647003651, -33.396547420057, 581.7657586375801],
          [-70.53454915622443, -33.4018564521022, 565.5633504777207],
          [-70.54102805269694, -33.402332821530614, 581.5248426396373],
          [-70.54825539641791, -33.3947646792247, 572.3591104127844],
          [-70.53646593298902, -33.40432129647182, 569.6011787914928],
          [-70.53463689499804, -33.398005125056024, 575.6303651247118],
          [-70.54620558201252, -33.4033688981034, 575.5330443782257],
          [-70.54706689914408, -33.38848738768774, 575.6462194709834],
          [-70.5367225643243, -33.39756656786309, 569.0101954230561],
          [-70.54142885908303, -33.40130174950278, 568.7454897195348],
          [-70.54373683628344, -33.406760038691864, 577.4854025780567],
          [-70.53446383866456, -33.401686001656124, 561.8179355655484],
          [-70.53934973353898, -33.39209628038368, 568.2534091225161],
          [-70.55112777396066, -33.39675755851207, 576.5058521886089],
          [-70.53826373290912, -33.39181976897023, 571.5529526116042],
          [-70.55259003560545, -33.40359614936175, 578.3807539060128],
          [-70.53276807924985, -33.39173908585448, 565.4103105650659],
          [-70.55010185795723, -33.3955358296437, 567.829251335931]
        ]
      },
      "properties": { "waterway": "stream", "width": 4.8900078790257145e-5, "elevation": 570.0 }
    },
    {
      "type": "Feature",
      "geometry": {
        "type": "Polygon",
        "coordinates": [
          [
            [-70.53677370326652, -33.401484134136126, 565.5832073118554],
            [-70.53680832037129, -33.40131010219817, 563.4143411098264],
            [-70.53690690154524, -33.40116256504516, 579.3983682696825],
            [-70.53705443869823, -33.401063983871225, 566.6553069188151],
            [-70.5372284706362, -33.401029366766444, 568.1732472478471],
            [-70.53740250257415, -33.401063983871225, 576.9963570918035],
            [-70.53755003972715, -33.40116256504516, 564.7860302489385],
            [-70.5376486209011, -33.40131010219817, 567.2097901167214],
            [-70.53768323800587, -33.401484134136126, 573.4504231029048],
            [-70.5376486209011, -33.401658166074085, 575.465392479787],
            [-70.53755003972715, -33.40180570322709, 563.5180443011338],
            [-70.53740250257415, -33.40190428440103, 573.4412705084156],
            [-70.5372284706362, -33.40193890150581, 568.3786034461342],
            [-70.53705443869823, -33.40190428440103, 564.336215966577],
            [-70.53690690154524, -33.40180570322709, 570.1777891116884],
            [-70.53680832037129, -33.401658166074085, 583.0122203719578],
            [-70.53677370326652, -33.401484134136126, 569.6087861990432]
          ]
        ]
      },
      "properties": { "natural": "water", "water": "pond", "elevation": 570.0 }
    },
    {
      "type": "Feature",
      "geometry": {
        "type": "Polygon",
        "coordinates": [
          [
            [-70.56063781408393, -33.39509336012912, 581.9039922751745],
            [-70.56069719443992, -33.39479483492039, 565.4719025795556],
            [-70.56086629538699, -33.39454175746855, 575.0907264565698],
            [-70.56111937283882, -33.3943726565215, 575.6373392799601],
            [-70.56141789804755, -33.394313276165505, 565.2051699877138],
            [-70.56171642325629, -33.3943726565215, 572.51724384496],
            [-70.56196950070812, -33.39454175746855, 573.9485852289775],
            [-70.56213860165518, -33.39479483492039, 565.8872271764607],
            [-70.56219798201117, -33.39509336012912, 569.2392184016076],
            [-70.56213860165518, -33.395391885337844, 575.625395720156],
            [-70.56196950070812, -33.39564496278968, 576.3102667288798],
            [-70.56171642325629, -33.395814063736736, 572.9023042659394],
            [-70.56141789804755, -33.39587344409273, 575.0431183310272],
            [-70.56111937283882, -33.395814063736736, 570.8663911657732],
            [-70.56086629538699, -33.39564496278968, 566.0349905364022],
            [-70.56069719443992, -33.395391885337844, 561.6632598071019],
            [-70.56063781408393, -33.39509336012912, 568.196297572905]
          ]
        ]
      },
      "properties": { "natural": "water", "water": "pond", "elevation": 570.0 }
    },
    {
      "type": "Feature",
      "geometry": {
        "type": "Polygon",
        "coordinates": [
          [
            [-70.56468485491081, -33.38286004300669, 572.2064021718658],
            [-70.56472182716132, -33.38267417095161, 577.6556732266705],
            [-70.56482711522285, -33.38251659623199, 571.8516040599391],
            [-70.56498468994248, -33.38241130817046, 565.9988511696251],
            [-70.56517056199755, -33.382374335919955, 566.8400786472668],
            [-70.56535643405262, -33.38241130817046, 569.225004886794],
            [-70.56551400877224, -33.38251659623199, 565.8682226428076],
            [-70.56561929683377, -33.38267417095161, 579.7862358176083],
            [-70.56565626908429, -33.38286004300669, 559.8520906911799],
            [-70.56561929683377, -33.383045915061764, 563.7028070194758],
            [-70.56551400877224, -33.38320348978139, 570.4339971440111],
            [-70.56535643405262, -33.38330877784291, 567.9203705707467],
            [-70.56517056199755, -33.38334575009342, 575.955977020904],
            [-70.56498468994248, -33.38330877784291, 561.4434019984076],
            [-70.56482711522285, -33.38320348978139, 562.5289389280476],
            [-70.56472182716132, -33.383045915061764, 570.6573550105583],
            [-70.56468485491081, -33.38286004300669, 565.671927036931]
          ]
        ]
      },
      "properties": { "natural": "water", "water": "pond", "elevation": 570.0 }
    },
    {
      "type": "Feature",
      "geometry": {
        "type": "Polygon",
        "coordinates": [
          [
            [-70.52216518120943, -33.400108551930344, 563.7763828831738],
            [-70.52219273739786, -33.399970017616035, 567.9441118943913],
            [-70.52227121078323, -33.39985257389526, 567.4231877416962],
            [-70.522388654504, -33.39977410050988, 573.3735554335709],
            [-70.52252718881832, -33.39974654432146, 565.9030367520648],
            [-70.52266572313263, -33.39977410050988, 575.6711788504157],
            [-70.5227831668534, -33.39985257389526, 574.2814929268055],
            [-70.52286164023877, -33.399970017616035, 569.8576844542425],
            [-70.5228891964272, -33.400108551930344, 576.1115775051658],
            [-70.52286164023877, -33.400247086244654, 576.0455024797743],
            [-70.5227831668534, -33.40036452996543, 564.4426302102137],
            [-70.52266572313263, -33.40044300335081, 567.7282622901598],
            [-70.52252718881832, -33.40047055953923, 565.6560233936174],
            [-70.522388654504, -33.40044300335081, 567.3923070147972],
            [-70.52227121078323, -33.40036452996543, 570.8400161381845],
            [-70.52219273739786, -33.400247086244654, 562.4904017984088],
            [-70.52216518120943, -33.400108551930344, 566.9873625080185]
          ]
        ]
      },
      "properties": { "natural": "water", "water": "pond", "elevation": 570.0 }
    },
    {
      "type": "Feature",
      "geometry": {
        "type": "Polygon",
        "coordinates": [
          [
            [-70.54826919393227, -33.406596710069536, 569.3463821881685],
            [-70.54831771751385, -33.406352765551524, 566.2589517742178],
            [-70.54845590098319, -33.406145959375024, 564.533438151251],
            [-70.54866270715969, -33.40600777590569, 566.2320214314209],
            [-70.5489066516777, -33.4059592523241, 555.6685059627782],
            [-70.5491505961957, -33.40600777590569, 565.6010172842311],
            [-70.54935740237221, -33.406145959375024, 566.8413273046651],
            [-70.54949558584154, -33.406352765551524, 571.7132272010631],
            [-70.54954410942312, -33.406596710069536, 574.4312914888623],
            [-70.54949558584154, -33.40684065458755, 572.1771525926733],
            [-70.54935740237221, -33.40704746076405, 572.0311763350632],
            [-70.5491505961957, -33.40718564423338, 563.2202953239948],
            [-70.5489066516777, -33.40723416781497, 561.9220529469823],
            [-70.54866270715969, -33.40718564423338, 574.0632264031073],
            [-70.54845590098319, -33.40704746076405, 571.4664634775983],
            [-70.54831771751385, -33.40684065458755, 568.290705944013],
            [-70.54826919393227, -33.406596710069536, 577.1564562334953]
          ]
        ]
      },
      "properties": { "natural": "water", "water": "pond", "elevation": 570.0 }
    },
    {
      "type": "Feature",
      "geometry": {
        "type": "Polygon",
        "coordinates": [
          [
            [-70.56496932868525, -33.39599675447718, 566.3823846223163],
            [-70.56499544678866, -33.39586544990449, 565.1302536999372],
            [-70.56506982485438, -33.39575413526271, 572.9290040125637],
            [-70.56518113949616, -33.39567975719699, 573.4317387500123],
            [-70.56531244406885, -33.39565363909359, 565.9159905864401],
            [-70.56544374864154, -33.39567975719699, 566.5341410157909],
            [-70.56555506328333, -33.39575413526271, 562.3144515023683],
            [-70.56562944134905, -33.39586544990449, 569.501379875101],
            [-70.56565555945245, -33.39599675447718, 567.8653798692142],
            [-70.56562944134905, -33.39612805904987, 570.4693830240084],
            [-70.56555506328333, -33.39623937369165, 570.7618190955349],
            [-70.56544374864154, -33.396313751757376, 572.0090037650006],
            [-70.56531244406885, -33.396339869860775, 565.763711054481],
            [-70.56518113949616, -33.396313751757376, 571.512313083641],
            [-70.56506982485438, -33.39623937369165, 571.0891949910915],
            [-70.56499544678866, -33.39612805904987, 573.5026176969747],
            [-70.56496932868525, -33.39599675447718, 565.1854093893256]
          ]
        ]
      },
      "properties": { "natural": "water", "water": "pond", "elevation": 570.0 }
    },
    {
      "type": "Feature",
      "geometry": {
        "type": "Polygon",
        "coordinates": [
          [
            [-70.53506306213077, -33.394088828408094, 563.617560067796],
            [-70.53510822378416, -33.3938617854445, 568.5076817554282],
            [-70.53523683329199, -33.393669307713964, 562.6674018245271],
            [-70.53542931102253, -33.393540698206145, 565.4225778254528],
            [-70.53565635398611, -33.39349553655276, 566.3164144419986],
            [-70.5358833969497, -33.393540698206145, 565.286224121105],
            [-70.53607587468024, -33.393669307713964, 570.0206434664215],
            [-70.53620448418806, -33.3938617854445, 569.0536750905347],
            [-70.53624964584145, -33.394088828408094, 566.4903362952326],
            [-70.53620448418806, -33.39431587137169, 567.2684856393028],
            [-70.53607587468024, -33.394508349102225, 562.3714717416176],
            [-70.5358833969497, -33.39463695861004, 573.4804268174139],
            [-70.53565635398611, -33.394682120263425, 571.8794762381078],
            [-70.53542931102253, -33.39463695861004, 575.1789355286364],
            [-70.53523683329199, -33.394508349102225, 571.295740893245],
            [-70.53510822378416, -33.39431587137169, 566.2701472014111],
            [-70.53506306213077, -33.394088828408094, 567.0972873941004]
          ]
        ]
      },
      "properties": { "natural": "water", "water": "pond", "elevation": 570.0 }
    },
    {
      "type": "Feature",
      "geometry": {
        "type": "Polygon",
        "coordinates": [
          [
            [-70.56442924726498, -33.41140502545886, 570.9963203428697],
            [-70.56447134436259, -33.411193389057566, 580.0873064516703],
            [-70.5645912267539, -33.41101397237988, 572.044874672455],
            [-70.5647706434316, -33.41089408998857, 567.1667803821626],
            [-70.56498227983289, -33.41085199289096, 570.2992224368763],
            [-70.56519391623418, -33.41089408998857, 569.0322402198439],
            [-70.56537333291188, -33.41101397237988, 559.9230725955108],
            [-70.56549321530319, -33.411193389057566, 572.5106320444092],
            [-70.5655353124008, -33.41140502545886, 564.7102437356264],
            [-70.56549321530319, -33.41161666186016, 575.2941149669336],
            [-70.56537333291188, -33.41179607853785, 569.755246870364],
            [-70.56519391623418, -33.41191596092916, 565.6511089815967],
            [-70.56498227983289, -33.41195805802676, 580.7966669130801],
            [-70.5647706434316, -33.41191596092916, 573.7951692692961],
            [-70.5645912267539, -33.41179607853785, 575.2751731906789],
            [-70.56447134436259, -33.41161666186016, 569.7749077130311],
            [-70.56442924726498, -33.41140502545886, 569.0885762724328]
          ]
        ]
      },
      "properties": { "natural": "water", "water": "pond", "elevation": 570.0 }
    },
    {
      "type": "Feature",
      "geometry": {
        "type": "Polygon",
        "coordinates": [
          [
            [-70.58018307315716, -33.41070297144258, 568.995414925086],
            [-70.58020711706467, -33.41058209455679, 579.2312538645467],
            [-70.58027558832026, -33.410479620081105, 578.30831042242],
            [-70.58037806279594, -33.410411148825524, 563.7579460033236],
            [-70.58049893968173, -33.41038710491801, 567.8868138211077],
            [-70.58061981656752, -33.410411148825524, 565.3010638073599],
            [-70.5807222910432, -33.410479620081105, 568.0607893392003],
            [-70.58079076229879, -33.41058209455679, 564.4362462581229],
            [-70.5808148062063, -33.41070297144258, 570.4283116931113],
            [-70.58079076229879, -33.41082384832838, 559.4252771597752],
            [-70.5807222910432, -33.41092632280406, 574.5786872998004],
            [-70.58061981656752, -33.41099479405964, 568.4295582060807],
            [-70.58049893968173, -33.411018837967156, 569.5312827436484],
            [-70.58037806279594, -33.41099479405964, 571.6913692484962],
            [-70.58027558832026, -33.41092632280406, 578.4295263546826],
            [-70.58020711706467, -33.41082384832838, 575.6760659780823],
            [-70.58018307315716, -33.41070297144258, 567.0986138883959]
          ]
        ]
      },
      "properties": { "natural": "water", "water": "pond", "elevation": 570.0 }
    },
    {
      "type": "Feature",
      "geometry": {
        "type": "Polygon",
        "coordinates": [
          [
            [-70.57608593058771, -33.41191743911252, 571.3160655766294],
            [-70.576126118654, -33.41171540005975, 570.8368685640519],
            [-70.57624056458408, -33.411544119621276, 563.0810135191881],
            [-70.57641184502256, -33.41142967369119, 570.225869398462],
            [-70.57661388407533, -33.4113894856249, 575.1487422224795],
            [-70.5768159231281, -33.41142967369119, 563.5311116182464],
            [-70.57698720356657, -33.411544119621276, 567.8489807154716],
            [-70.57710164949665, -33.41171540005975, 578.3183491552624],
            [-70.57714183756295, -33.41191743911252, 564.918362729695],
            [-70.57710164949665, -33.412119478165295, 574.4759899829395],
            [-70.57698720356657, -33.41229075860377, 556.2529449892129],
            [-70.5768159231281, -33.412405204533854, 566.6712398914254],
            [-70.57661388407533, -33.41244539260014, 567.3440999471821],
            [-70.57641184502256, -33.412405204533854, 578.4803166399912],
            [-70.57624056458408, -33.41229075860377, 569.310945714794],
            [-70.576126118654, -33.412119478165295, 572.1423132864179],
            [-70.57608593058771, -33.41191743911252, 560.940534971996]
          ]
        ]
      },
      "properties": { "natural": "water", "water": "pond", "elevation": 570.0 }
    },
    {
      "type": "Feature",
      "geometry": {
        "type": "Polygon",
        "coordinates": [
          [
            [-70.54584070312828, -33.392062661048506, 567.0095125025821],
            [-70.54585809485947, -33.391975226911434, 569.1755518232031],
            [-70.54590762231963, -33.391901103829134, 579.5220604195796],
            [-70.54598174540193, -33.39185157636897, 565.7548674056326],
            [-70.546069179539, -33.39183418463777, 556.5458108354718],
            [-70.54615661367608, -33.39185157636897, 564.4939761877716],
            [-70.54623073675837, -33.391901103829134, 572.4429736806469],
            [-70.54628026421854, -33.391975226911434, 569.2329185080685],
            [-70.54629765594973, -33.392062661048506, 581.2517684701754],
            [-70.54628026421854, -33.39215009518558, 566.3865814303566],
            [-70.54623073675837, -33.39222421826788, 561.0538165488382],
            [-70.54615661367608, -33.39227374572804, 565.0980735503421],
            [-70.546069179539, -33.39229113745924, 566.1312662353578],
            [-70.54598174540193, -33.39227374572804, 567.980427205794],
            [-70.54590762231963, -33.39222421826788, 572.733277505655],
            [-70.54585809485947, -33.39215009518558, 570.0320034531924],
            [-70.54584070312828, -33.392062661048506, 576.9138922356109]
          ]
        ]
      },
      "properties": { "natural": "water", "water": "pond", "elevation": 570.0 }
    },
    {
      "type": "Feature",
      "geometry": {
        "type": "Polygon",
        "coordinates": [
          [
            [-70.54111136264221, -33.40734362391005, 569.0007618427867],
            [-70.5411343011745, -33.40722830412083, 568.8494411163311],
            [-70.54119962458773, -33.40713054072414, 568.371955714128],
            [-70.54129738798443, -33.4070652173109, 572.4218998588697],
            [-70.54141270777365, -33.407042278778626, 566.5882296307988],
            [-70.54152802756286, -33.4070652173109, 563.5272628473207],
            [-70.54162579095956, -33.40713054072414, 571.490845011145],
            [-70.5416911143728, -33.40722830412083, 567.4903584408589],
            [-70.54171405290508, -33.40734362391005, 565.2832533704018],
            [-70.5416911143728, -33.407458943699275, 573.097269368133],
            [-70.54162579095956, -33.407556707095964, 565.7643949394906],
            [-70.54152802756286, -33.4076220305092, 563.1542046346445],
            [-70.54141270777365, -33.40764496904148, 569.5947507889373],
            [-70.54129738798443, -33.4076220305092, 568.5317983687979],
            [-70.54119962458773, -33.407556707095964, 563.6919185762243],
            [-70.5411343011745, -33.407458943699275, 571.2774400120246],
            [-70.54111136264221, -33.40734362391005, 576.3406907630208]
          ]
        ]
      },
      "properties": { "natural": "water", "water": "pond", "elevation": 570.0 }
    }
  ]
}
