{
  "type": "FeatureCollection",
  "features": [
    {
      "type": "Feature",
      "geometry": {
        "type": "Polygon",
        "coordinates": [
          [
            [-70.565, -33.3995, 563.2764599731443],
            [-70.56509788696741, -33.39888196601125, 565.2325339275324],
            [-70.56538196601124, -33.39832442949542, 570.1681025763809],
            [-70.56582442949541, -33.397881966011255, 571.6610625760549],
            [-70.56638196601125, -33.39759788696741, 580.0855049764853],
            [-70.567, -33.3975, 569.898297310159],
            [-70.56761803398874, -33.39759788696741, 560.7365632070455],
            [-70.56817557050458, -33.397881966011255, 562.2884317260682],
            [-70.56861803398874, -33.39832442949542, 578.7811287143068],
            [-70.56890211303258, -33.39888196601125, 566.8911935130564],
            [-70.56899999999999, -33.3995, 568.185265950235],
            [-70.56890211303258, -33.400118033988754, 565.4943141896324],
            [-70.56861803398874, -33.40067557050459, 582.66718069922],
            [-70.56817557050458, -33.40111803398875, 577.0552499143685],
            [-70.56761803398874, -33.401402113032596, 581.8962240965152],
            [-70.567, -33.401500000000006, 565.2468034785522],
            [-70.56638196601125, -33.401402113032596, 574.5189777669065],
            [-70.56582442949541, -33.40111803398875, 559.5584369687806],
            [-70.56538196601124, -33.40067557050459, 580.7248471047792],
            [-70.56509788696741, -33.400118033988754, 560.3782018923158],
            [-70.565, -33.3995, 583.2692090687459]
          ]
        ]
      },
      "properties": {
        "name": "Parque Araucano",
        "leisure": "park",
        "elevation": 570.0,
        "area": 4e-6,
        "vegetation": "mixed"
      }
    },
    {
      "type": "Feature",
      "geometry": {
        "type": "Polygon",
        "coordinates": [
          [
            [-70.53949999999999, -33.3845, 562.48800102841],
            [-70.53962235870925, -33.38372745751406, 576.0312569881794],
            [-70.53997745751406, -33.38303053686927, 583.1271703605413],
            [-70.54053053686926, -33.382477457514064, 561.3559433936664],
            [-70.54122745751405, -33.38212235870927, 582.5093156513709],
            [-70.54199999999999, -33.382000000000005, 576.7050252341135],
            [-70.54277254248592, -33.38212235870927, 584.2151378458625],
            [-70.54346946313072, -33.382477457514064, 582.9242994054107],
            [-70.54402254248592, -33.38303053686927, 580.2697619785843],
            [-70.54437764129072, -33.38372745751406, 563.7307906261582],
            [-70.54449999999999, -33.3845, 578.308127975931],
            [-70.54437764129072, -33.38527254248594, 568.6949415390026],
            [-70.54402254248592, -33.385969463130735, 580.9458745917245],
            [-70.54346946313072, -33.38652254248594, 575.3336816021849],
            [-70.54277254248592, -33.38687764129074, 577.5240784406571],
            [-70.54199999999999, -33.387, 584.6859316697563],
            [-70.54122745751405, -33.38687764129074, 591.3278836762804],
            [-70.54053053686926, -33.38652254248594, 561.4451390144259],
            [-70.53997745751406, -33.385969463130735, 569.7774791817687],
            [-70.53962235870925, -33.38527254248594, 571.069305695157],
            [-70.53949999999999, -33.3845, 568.1130925327162]
          ]
        ]
      },
      "properties": {
        "name": "Parque Bicentenario",
        "leisure": "park",
        "elevation": 570.0,
        "area": 6.25e-6,
        "vegetation": "mixed"
      }
    },
    {
      "type": "Feature",
      "geometry": {
        "type": "Polygon",
        "coordinates": [
          [
            [-70.56186799430638, -33.383968049282934, 572.1023928341551],
            [-70.56197209523138, -33.383579539341724, 567.6169283882441],
            [-70.5622565042476, -33.383295130325514, 562.9511921207506],
            [-70.5626450141888, -33.383191029400514, 556.8622515266982],
            [-70.56303352413, -33.383295130325514, 576.2429154725419],
            [-70.56331793314622, -33.383579539341724, 568.0413448498972],
            [-70.56342203407122, -33.383968049282934, 579.4495139712061],
            [-70.56331793314622, -33.384356559224145, 583.6483592702933],
            [-70.56303352413, -33.384640968240355, 569.7847894477169],
            [-70.5626450141888, -33.384745069165355, 576.9770553933769],
            [-70.5622565042476, -33.384640968240355, 546.9657216407066],
            [-70.56197209523138, -33.384356559224145, 572.4484368761173],
            [-70.56186799430638, -33.383968049282934, 574.9921405712424]
          ]
        ]
      },
      "properties": { "leisure": "park", "elevation": 570.0, "area": 6.0375989767453e-7 }
    },
    {
      "type": "Feature",
      "geometry": {
        "type": "Polygon",
        "coordinates": [
          [
            [-70.5280480837871, -33.383659877452914, 560.5443497957881],
            [-70.5281260567875, -33.38336887825381, 576.0467251054898],
            [-70.52833908298621, -33.38315585205511, 557.6706334565627],
            [-70.5286300821853, -33.38307787905472, 560.5714780680842],
            [-70.5289210813844, -33.38315585205511, 571.7064961411006],
            [-70.5291341075831, -33.38336887825381, 565.1821059697454],
            [-70.5292120805835, -33.383659877452914, 580.2006723130777],
            [-70.5291341075831, -33.383950876652015, 578.1810783063485],
            [-70.5289210813844, -33.384163902850716, 555.4967826907882],
            [-70.5286300821853, -33.38424187585111, 574.2321799826666],
            [-70.52833908298621, -33.384163902850716, 568.7436537663968],
            [-70.5281260567875, -33.383950876652015, 560.5888932526708],
            [-70.5280480837871, -33.383659877452914, 578.1721580982346]
          ]
        ]
      },
      "properties": { "leisure": "park", "elevation": 570.0, "area": 3.3872213550598135e-7 }
    },
    {
      "type": "Feature",
      "geometry": {
        "type": "Polygon",
        "coordinates": [
          [
            [-70.52947232999637, -33.40979593637237, 582.1770116322285],
            [-70.52957422499999, -33.40941565904183, 566.4520187852553],
            [-70.52985260732692, -33.40913727671491, 582.4598996754792],
            [-70.53023288465745, -33.40903538171129, 559.080236920514],
            [-70.53061316198799, -33.40913727671491, 573.0024929060943],
            [-70.53089154431491, -33.40941565904183, 584.1338417005953],
            [-70.53099343931854, -33.40979593637237, 580.0869666749976],
            [-70.53089154431491, -33.41017621370291, 565.5093992822472],
            [-70.53061316198799, -33.41045459602983, 558.0958679693981],
            [-70.53023288465745, -33.41055649103345, 576.5692758750074],
            [-70.52985260732692, -33.41045459602983, 572.6274181898547],
            [-70.52957422499999, -33.41017621370291, 578.6662277305574],
            [-70.52947232999637, -33.40979593637237, 581.5010469755089]
          ]
        ]
      },
      "properties": { "leisure": "park", "elevation": 570.0, "area": 5.784433924879677e-7 }
    },
    {
      "type": "Feature",
      "geometry": {
        "type": "Polygon",
        "coordinates": [
          [
            [-70.57754429377559, -33.37877217985822, 555.9073407799709],
            [-70.57764490561034, -33.37839669137905, 562.1486719224991],
            [-70.57791978225475, -33.37812181473465, 550.1125804177912],
            [-70.57829527073392, -33.37802120289989, 570.0801564797447],
            [-70.57867075921308, -33.37812181473465, 568.4280970500483],
            [-70.5789456358575, -33.37839669137905, 563.9234440871608],
            [-70.57904624769225, -33.37877217985822, 570.553343151159],
            [-70.5789456358575, -33.37914766833738, 552.2132473087165],
            [-70.57867075921308, -33.379422544981786, 575.0341127452923],
            [-70.57829527073392, -33.379523156816546, 590.6545895157403],
            [-70.57791978225475, -33.379422544981786, 567.7986618307849],
            [-70.57764490561034, -33.37914766833738, 561.1776800225063],
            [-70.57754429377559, -33.37877217985822, 569.5387318870639]
          ]
        ]
      },
      "properties": { "leisure": "park", "elevation": 570.0, "area": 5.639663919438197e-7 }
    },
    {
      "type": "Feature",
      "geometry": {
        "type": "Polygon",
        "coordinates": [
          [
            [-70.58108160793938, -33.38813725949472, 581.7580267757435],
            [-70.58116436311113, -33.38782841298917, 564.2886438602164],
            [-70.58139045444493, -33.38760232165537, 587.8918081284779],
            [-70.58169930095048, -33.387519566483626, 556.3076605391072],
            [-70.58200814745602, -33.38760232165537, 567.3400657486795],
            [-70.58223423878982, -33.38782841298917, 575.2846083075125],
            [-70.58231699396157, -33.38813725949472, 568.8691611229293],
            [-70.58223423878982, -33.388446106000266, 570.5266795500542],
            [-70.58200814745602, -33.38867219733407, 536.6726362571941],
            [-70.58169930095048, -33.38875495250581, 569.9583508366608],
            [-70.58139045444493, -33.38867219733407, 576.4004984493097],
            [-70.58116436311113, -33.388446106000266, 577.9119352849317],
            [-70.58108160793938, -33.38813725949472, 574.5739798795196]
          ]
        ]
      },
      "properties": { "leisure": "park", "elevation": 570.0, "area": 3.8154465595800333e-7 }
    },
    {
      "type": "Feature",
      "geometry": {
        "type": "Polygon",
        "coordinates": [
          [
            [-70.51732020299548, -33.38871516500285, 564.8999231282702],
            [-70.51741995025273, -33.38834290317085, 567.2283192604391],
            [-70.51769246482748, -33.388070388596105, 569.9826057147149],
            [-70.51806472665947, -33.38797064133885, 572.9747484892305],
            [-70.51843698849147, -33.388070388596105, 556.8109609094395],
            [-70.51870950306622, -33.38834290317085, 575.6968040831808],
            [-70.51880925032347, -33.38871516500285, 567.1949837725731],
            [-70.51870950306622, -33.38908742683485, 566.5745467199017],
            [-70.51843698849147, -33.389359941409595, 560.7436676222379],
            [-70.51806472665947, -33.38945968866685, 573.463904772462],
            [-70.51769246482748, -33.389359941409595, 585.0243196119459],
            [-70.51741995025273, -33.38908742683485, 559.2832069739304],
            [-70.51732020299548, -33.38871516500285, 576.3904210309662]
          ]
        ]
      },
      "properties": { "leisure": "park", "elevation": 570.0, "area": 5.543154862539005e-7 }
    },
    {
      "type": "Feature",
      "geometry": {
        "type": "Polygon",
        "coordinates": [
          [
            [-70.56055290719343, -33.40605541649364, 579.1694390207826],
            [-70.56067668956264, -33.405593454402634, 567.8844533472666],
            [-70.56101486928443, -33.40525527468084, 575.9508511311418],
            [-70.56147683137544, -33.40513149231162, 570.661029922724],
            [-70.56193879346645, -33.40525527468084, 564.0875496287276],
            [-70.56227697318825, -33.405593454402634, 576.8312782718157],
            [-70.56240075555746, -33.40605541649364, 563.2796353346524],
            [-70.56227697318825, -33.40651737858465, 561.4755239480784],
            [-70.56193879346645, -33.40685555830645, 560.1895072903084],
            [-70.56147683137544, -33.40697934067567, 558.6879858099494],
            [-70.56101486928443, -33.40685555830645, 574.9767002195039],
            [-70.56067668956264, -33.40651737858465, 588.805809745673],
            [-70.56055290719343, -33.40605541649364, 557.6711084417658]
          ]
        ]
      },
      "properties": { "leisure": "park", "elevation": 570.0, "area": 8.536358941290502e-7 }
    },
    {
      "type": "Feature",
      "geometry": {
        "type": "Polygon",
        "coordinates": [
          [
            [-70.52397631542006, -33.39076706372265, 577.6197105122436],
            [-70.52410652378215, -33.390281119499704, 576.4359880875535],
            [-70.524462259643, -33.38992538363886, 565.9899888032213],
            [-70.52494820386595, -33.38979517527675, 562.0873513382586],
            [-70.52543414808889, -33.38992538363886, 554.5618742915916],
            [-70.52578988394974, -33.390281119499704, 560.3034398455595],
            [-70.52592009231184, -33.39076706372265, 566.3172958610155],
            [-70.52578988394974, -33.39125300794559, 555.5776872082109],
            [-70.52543414808889, -33.39160874380644, 562.9010160570464],
            [-70.52494820386595, -33.391738952168545, 570.9602913711174],
            [-70.524462259643, -33.39160874380644, 555.3705932269041],
            [-70.52410652378215, -33.39125300794559, 565.4278780114032],
            [-70.52397631542006, -33.39076706372265, 569.5882464310345]
          ]
        ]
      },
      "properties": { "leisure": "park", "elevation": 570.0, "area": 9.445671512605691e-7 }
    },
    {
      "type": "Feature",
      "geometry": {
        "type": "Polygon",
        "coordinates": [
          [
            [-70.53505402265155, -33.3898694207017, 570.8638616934506],
            [-70.53516060528952, -33.38947164888156, 587.6150781173079],
            [-70.53545179447168, -33.389180459699396, 566.100565440542],
            [-70.53584956629183, -33.38907387706141, 567.7059794064533],
            [-70.53624733811198, -33.389180459699396, 571.4081736037103],
            [-70.53653852729414, -33.38947164888156, 566.381199607351],
            [-70.53664510993211, -33.3898694207017, 576.5633924583526],
            [-70.53653852729414, -33.39026719252184, 574.1574491865639],
            [-70.53624733811198, -33.390558381704004, 557.6855890496641],
            [-70.53584956629183, -33.39066496434199, 566.6312632441112],
            [-70.53545179447168, -33.390558381704004, 561.7987214412007],
            [-70.53516060528952, -33.39026719252184, 578.8941885698956],
            [-70.53505402265155, -33.3898694207017, 552.1434717291711]
          ]
        ]
      },
      "properties": { "leisure": "park", "elevation": 570.0, "area": 6.328896835971171e-7 }
    },
    {
      "type": "Feature",
      "geometry": {
        "type": "Polygon",
        "coordinates": [
          [
            [-70.52607632593693, -33.37700679209644, 580.106273639425],
            [-70.52619034356754, -33.37658127250603, 562.8493338437377],
            [-70.52650184552733, -33.37626977054623, 558.9980074104838],
            [-70.52692736511774, -33.376155752915615, 568.4637745522041],
            [-70.52735288470815, -33.37626977054623, 589.5378661395762],
            [-70.52766438666795, -33.37658127250603, 561.2946190699121],
            [-70.52777840429856, -33.37700679209644, 569.8734245791013],
            [-70.52766438666795, -33.377432311686846, 588.9296069007956],
            [-70.52735288470815, -33.377743813646646, 583.4386964650816],
            [-70.52692736511774, -33.37785783127726, 576.6534106785239],
            [-70.52650184552733, -33.377743813646646, 572.8326305349777],
            [-70.52619034356754, -33.377432311686846, 551.8203275799468],
            [-70.52607632593693, -33.37700679209644, 569.872128654601]
          ]
        ]
      },
      "properties": { "leisure": "park", "elevation": 570.0, "area": 7.242676872941447e-7 }
    },
    {
      "type": "Feature",
      "geometry": {
        "type": "Polygon",
        "coordinates": [
          [
            [-70.56820746317977, -33.40165773707753, 560.2099839111631],
            [-70.56829882671218, -33.40131676373264, 558.7966591692925],
            [-70.56854843652467, -33.401067153920145, 565.6624622860036],
            [-70.56888940986956, -33.40097579038774, 571.1434513641536],
            [-70.56923038321445, -33.401067153920145, 585.0983861299131],
            [-70.56947999302693, -33.40131676373264, 578.0734328932464],
            [-70.56957135655934, -33.40165773707753, 570.8034258443697],
            [-70.56947999302693, -33.40199871042242, 582.8056474015306],
            [-70.56923038321445, -33.40224832023491, 564.0756196333572],
            [-70.56888940986956, -33.402339683767316, 567.5072179318485],
            [-70.56854843652467, -33.40224832023491, 566.9621506037043],
            [-70.56829882671218, -33.40199871042242, 580.8147382414409],
            [-70.56820746317977, -33.40165773707753, 587.6027955908116]
          ]
        ]
      },
      "properties": { "leisure": "park", "elevation": 570.0, "area": 4.650512877112522e-7 }
    },
    {
      "type": "Feature",
      "geometry": {
        "type": "Polygon",
        "coordinates": [
          [
            [-70.5840291429693, -33.37701655612607, 584.8476190748681],
            [-70.5841344527671, -33.37662353461011, 561.4111635248428],
            [-70.58442216448526, -33.37633582289195, 569.1492564361773],
            [-70.58481518600122, -33.37623051309414, 572.0818020623796],
            [-70.58520820751718, -33.37633582289195, 544.6120216530628],
            [-70.58549591923534, -33.37662353461011, 585.0748373086552],
            [-70.58560122903314, -33.37701655612607, 568.5779705391981],
            [-70.58549591923534, -33.377409577642034, 570.5896115368711],
            [-70.58520820751718, -33.37769728936019, 581.483719069125],
            [-70.58481518600122, -33.377802599158, 564.1982109770967],
            [-70.58442216448526, -33.37769728936019, 571.4993359926337],
            [-70.5841344527671, -33.377409577642034, 571.5044234663746],
            [-70.5840291429693, -33.37701655612607, 581.7395879836569]
          ]
        ]
      },
      "properties": { "leisure": "park", "elevation": 570.0, "area": 6.178636480406002e-7 }
    },
    {
      "type": "Feature",
      "geometry": {
        "type": "Polygon",
        "coordinates": [
          [
            [-70.52282844954709, -33.410131575110825, 570.5210089495558],
            [-70.52293021236521, -33.40975179110326, 556.3125555432898],
            [-70.52320823355466, -33.409473769913824, 566.4293952036033],
            [-70.52358801756222, -33.4093720070957, 583.6777855931695],
            [-70.52396780156978, -33.409473769913824, 562.4543451018574],
            [-70.52424582275923, -33.40975179110326, 562.4164324332337],
            [-70.52434758557735, -33.410131575110825, 584.4539989085957],
            [-70.52424582275923, -33.41051135911839, 560.4192496640309],
            [-70.52396780156978, -33.410789380307826, 578.8848128365009],
            [-70.52358801756222, -33.41089114312595, 578.8053382245413],
            [-70.52320823355466, -33.410789380307826, 577.7047261170765],
            [-70.52293021236521, -33.41051135911839, 571.6937950966737],
            [-70.52282844954709, -33.410131575110825, 583.5716458322662]
          ]
        ]
      },
      "properties": { "leisure": "park", "elevation": 570.0, "area": 5.769435696072687e-7 }
    },
    {
      "type": "Feature",
      "geometry": {
        "type": "Polygon",
        "coordinates": [
          [
            [-70.54225206700191, -33.383089354052494, 570.7284081283618],
            [-70.54232859749685, -33.38280373835704, 574.1684092832012],
            [-70.54253768269736, -33.382594653156524, 578.4190039173552],
            [-70.54282329839282, -33.38251812266158, 553.6104131837368],
            [-70.54310891408828, -33.382594653156524, 574.5272689984737],
            [-70.54331799928879, -33.38280373835704, 572.1642270337092],
            [-70.54339452978373, -33.383089354052494, 572.0442928355408],
            [-70.54331799928879, -33.38337496974795, 574.6963956320101],
            [-70.54310891408828, -33.383584054948464, 567.6564823837731],
            [-70.54282329839282, -33.38366058544341, 566.2391871067026],
            [-70.54253768269736, -33.383584054948464, 550.7784636326477],
            [-70.54232859749685, -33.38337496974795, 562.5640159298389],
            [-70.54225206700191, -33.383089354052494, 561.5573487263972]
          ]
        ]
      },
      "properties": { "leisure": "park", "elevation": 570.0, "area": 3.263053019646707e-7 }
    },
    {
      "type": "Feature",
      "geometry": {
        "type": "Polygon",
        "coordinates": [
          [
            [-70.53974752469479, -33.414193871372305, 559.3927221814921],
            [-70.53988142958005, -33.41369413153715, 557.1615049837119],
            [-70.54024726452994, -33.413328296587245, 567.8119637083875],
            [-70.5407470043651, -33.41319439170199, 565.0419340222276],
            [-70.54124674420027, -33.413328296587245, 586.7391301070921],
            [-70.54161257915015, -33.41369413153715, 595.814297155566],
            [-70.54174648403541, -33.414193871372305, 558.5835484006532],
            [-70.54161257915015, -33.41469361120746, 570.3623906873105],
            [-70.54124674420027, -33.415059446157365, 576.378877324024],
            [-70.5407470043651, -33.41519335104262, 576.8416231782543],
            [-70.54024726452994, -33.415059446157365, 583.3492658004647],
            [-70.53988142958005, -33.41469361120746, 563.0132761837389],
            [-70.53974752469479, -33.414193871372305, 560.4876960078184]
          ]
        ]
      },
      "properties": { "leisure": "park", "elevation": 570.0, "area": 9.989596113719934e-7 }
    },
    {
      "type": "Feature",
      "geometry": {
        "type": "Polygon",
        "coordinates": [
          [
            [-70.54119437558619, -33.409689991927216, 567.5632350921386],
            [-70.54127078040757, -33.409404845251856, 567.006378811908],
            [-70.54147952226154, -33.40919610339788, 547.6772418220032],
            [-70.5417646689369, -33.40911969857649, 576.975886515993],
            [-70.54204981561227, -33.40919610339788, 577.9215637576799],
            [-70.54225855746624, -33.409404845251856, 577.1064130369135],
            [-70.54233496228763, -33.409689991927216, 581.900041834095],
            [-70.54225855746624, -33.409975138602576, 560.2430997489315],
            [-70.54204981561227, -33.41018388045655, 569.167315227996],
            [-70.5417646689369, -33.41026028527794, 562.4108812977187],
            [-70.54147952226154, -33.41018388045655, 569.0168509474817],
            [-70.54127078040757, -33.409975138602576, 557.7714588298077],
            [-70.54119437558619, -33.409689991927216, 565.0533814653854]
          ]
        ]
      },
      "properties": { "leisure": "park", "elevation": 570.0, "area": 3.2523450587999443e-7 }
    },
    {
      "type": "Feature",
      "geometry": {
        "type": "Polygon",
        "coordinates": [
          [
            [-70.57133660437637, -33.405005398480576, 583.6565747642971],
            [-70.5714642483592, -33.40452902465137, 582.8653239801292],
            [-70.57181297820559, -33.404180294804995, 571.3137612990505],
            [-70.57228935203479, -33.404052650822166, 598.4010087938493],
            [-70.57276572586399, -33.404180294804995, 575.0903278052584],
            [-70.57311445571037, -33.40452902465137, 574.2291963059098],
            [-70.5732420996932, -33.405005398480576, 578.3572583480469],
            [-70.57311445571037, -33.405481772309784, 579.1170691189338],
            [-70.57276572586399, -33.40583050215616, 563.5178616374565],
            [-70.57228935203479, -33.405958146138985, 571.786350363926],
            [-70.57181297820559, -33.40583050215616, 573.5343553730713],
            [-70.5714642483592, -33.405481772309784, 584.7763808454333],
            [-70.57133660437637, -33.405005398480576, 577.7018819606714]
          ]
        ]
      },
      "properties": { "leisure": "park", "elevation": 570.0, "area": 9.077281006068682e-7 }
    },
    {
      "type": "Feature",
      "geometry": {
        "type": "Polygon",
        "coordinates": [
          [
            [-70.52625276342006, -33.40317394345158, 590.2394258585475],
            [-70.52636153064493, -33.402768018642156, 560.8534492495431],
            [-70.52665868822947, -33.4024708610576, 582.6352364079223],
            [-70.5270646130389, -33.40236209383273, 556.6928338523878],
            [-70.52747053784833, -33.4024708610576, 595.5896540873622],
            [-70.52776769543287, -33.402768018642156, 573.9794375228868],
            [-70.52787646265774, -33.40317394345158, 571.8010953829759],
            [-70.52776769543287, -33.403579868261, 567.8500440170671],
            [-70.52747053784833, -33.40387702584555, 584.3244146075033],
            [-70.5270646130389, -33.403985793070426, 573.1152976626731],
            [-70.52665868822947, -33.40387702584555, 561.0249279595091],
            [-70.52636153064493, -33.403579868261, 572.4004359181768],
            [-70.52625276342006, -33.40317394345158, 576.7774226524444]
          ]
        ]
      },
      "properties": { "leisure": "park", "elevation": 570.0, "area": 6.590998036192791e-7 }
    },
    {
      "type": "Feature",
      "geometry": {
        "type": "Polygon",
        "coordinates": [
          [
            [-70.51730952264603, -33.406873190817215, 570.7333955748503],
            [-70.51740945053574, -33.40650025485575, 565.7479671175109],
            [-70.5176824586075, -33.406227246783985, 551.8401524483994],
            [-70.51805539456896, -33.406127318894285, 588.0329047156092],
            [-70.51842833053043, -33.406227246783985, 557.6028159796324],
            [-70.51870133860218, -33.40650025485575, 578.3751666054217],
            [-70.51880126649189, -33.406873190817215, 552.1662303424464],
            [-70.51870133860218, -33.40724612677868, 568.3671486613093],
            [-70.51842833053043, -33.407519134850446, 576.6399962696626],
            [-70.51805539456896, -33.407619062740146, 563.842700927578],
            [-70.5176824586075, -33.407519134850446, 563.4970282204519],
            [-70.51740945053574, -33.40724612677868, 557.2484321925838],
            [-70.51730952264603, -33.406873190817215, 576.8695224245854]
          ]
        ]
      },
      "properties": { "leisure": "park", "elevation": 570.0, "area": 5.563249254186835e-7 }
    },
    {
      "type": "Feature",
      "geometry": {
        "type": "Polygon",
        "coordinates": [
          [
            [-70.56184072428456, -33.38559736215608, 562.9376508231462],
            [-70.56196609508105, -33.38512947197381, 578.1397834701509],
            [-70.56230861446684, -33.38478695258803, 571.6531617225062],
            [-70.56277650464911, -33.38466158179154, 561.1822995744556],
            [-70.56324439483137, -33.38478695258803, 574.6091886827401],
            [-70.56358691421717, -33.38512947197381, 577.4090052067559],
            [-70.56371228501365, -33.38559736215608, 568.8477563828864],
            [-70.56358691421717, -33.386065252338355, 577.666476290141],
            [-70.56324439483137, -33.38640777172414, 574.1502869073021],
            [-70.56277650464911, -33.386533142520626, 558.8553501630786],
            [-70.56230861446684, -33.38640777172414, 558.5573418011218],
            [-70.56196609508105, -33.386065252338355, 567.6914662213812],
            [-70.56184072428456, -33.38559736215608, 574.6412364938038]
          ]
        ]
      },
      "properties": { "leisure": "park", "elevation": 570.0, "area": 8.756848906579437e-7 }
    },
    {
      "type": "Feature",
      "geometry": {
        "type": "Polygon",
        "coordinates": [
          [
            [-70.58132851850935, -33.41364623636071, 567.6582907449243],
            [-70.58140761606666, -33.413351040258064, 578.616390243488],
            [-70.581623714612, -33.41313494171273, 559.2324867092766],
            [-70.58191891071465, -33.41305584415541, 577.0086203450311],
            [-70.5822141068173, -33.41313494171273, 573.7614735169117],
            [-70.58243020536264, -33.413351040258064, 575.7494242252466],
            [-70.58250930291995, -33.41364623636071, 552.168438529227],
            [-70.58243020536264, -33.41394143246336, 551.4700298351137],
            [-70.5822141068173, -33.4141575310087, 564.5108939243647],
            [-70.58191891071465, -33.414236628566016, 562.8554141845294],
            [-70.581623714612, -33.4141575310087, 579.7916688913667],
            [-70.58140761606666, -33.41394143246336, 572.1155643340788],
            [-70.58132851850935, -33.41364623636071, 579.5663900681413]
          ]
        ]
      },
      "properties": { "leisure": "park", "elevation": 570.0, "area": 3.485629560816804e-7 }
    },
    {
      "type": "Feature",
      "geometry": {
        "type": "Polygon",
        "coordinates": [
          [
            [-70.57334272451449, -33.411542380890616, 563.1523886399515],
            [-70.57345767325356, -33.411113386356156, 560.6280370087928],
            [-70.57377171904895, -33.410799340560764, 563.8592443804503],
            [-70.57420071358341, -33.4106843918217, 560.4104502259348],
            [-70.57462970811787, -33.410799340560764, 568.8380649208699],
            [-70.57494375391326, -33.411113386356156, 563.8983324957062],
            [-70.57505870265233, -33.411542380890616, 569.5675714135755],
            [-70.57494375391326, -33.411971375425075, 581.9713317961512],
            [-70.57462970811787, -33.41228542122047, 567.2701817622025],
            [-70.57420071358341, -33.412400369959535, 561.8076691823715],
            [-70.57377171904895, -33.41228542122047, 576.8229400614005],
            [-70.57345767325356, -33.411971375425075, 575.5200777977903],
            [-70.57334272451449, -33.411542380890616, 563.8858763356652]
          ]
        ]
      },
      "properties": { "leisure": "park", "elevation": 570.0, "area": 7.361452423847237e-7 }
    },
    {
      "type": "Feature",
      "geometry": {
        "type": "Polygon",
        "coordinates": [
          [
            [-70.5800019321542, -33.397208420989195, 581.0349880775165],
            [-70.58009014548122, -33.39687920437089, 581.6467013605366],
            [-70.58033114877252, -33.3966382010796, 577.1343468308536],
            [-70.58066036539081, -33.396549987752586, 569.3685329971761],
            [-70.58098958200911, -33.3966382010796, 577.5693280581032],
            [-70.5812305853004, -33.39687920437089, 572.0616208734136],
            [-70.58131879862742, -33.397208420989195, 570.7502572741095],
            [-70.5812305853004, -33.3975376376075, 564.6091226479045],
            [-70.58098958200911, -33.39777864089879, 562.5425976376134],
            [-70.58066036539081, -33.3978668542258, 551.75251692371],
            [-70.58033114877252, -33.39777864089879, 573.6520158252981],
            [-70.58009014548122, -33.3975376376075, 568.0266184530074],
            [-70.5800019321542, -33.397208420989195, 574.3938736448647]
          ]
        ]
      },
      "properties": { "leisure": "park", "elevation": 570.0, "area": 4.3353432706860656e-7 }
    }
  ]
}
