{"type": "FeatureCollection", "features": [{"type": "Feature", "geometry": {"type": "LineString", "coordinates": [[-70.592, -33.414500000000004, 587.7855689010796], [-70.5889025623849, -33.412706910210986, 564.4282847590365], [-70.58580912668825, -33.41091782234043, 583.2360701121164], [-70.58272339802454, -33.4091364415028, 566.327307465967], [-70.57964850991283, -33.40736590121719, 551.5658850274174], [-70.57658679187811, -33.40560853100855, 577.1586789684009], [-70.57353959668093, -33.40386568363747, 552.8465226635884], [-70.57050719998949, -33.402137634772096, 579.1107890976602], [-70.56748877993445, -33.40042356254314, 572.1334703744573], [-70.5644824780633, -33.39872160849809, 611.4194626172467], [-70.56148553717334, -33.3970290154342, 587.9493398104132], [-70.55849450580061, -33.395342331887576, 572.8036831079846], [-70.55550549419938, -33.393657668112425, 575.8733930568566], [-70.55251446282665, -33.3919709845658, 575.038145753266], [-70.54951752193669, -33.39027839150191, 585.1356799580959], [-70.54651122006554, -33.38857643745686, 576.6389494608178], [-70.5434928000105, -33.386862365227906, 558.5240756765588], [-70.54046040331906, -33.38513431636253, 566.4578234437192], [-70.53741320812188, -33.38339146899145, 577.4665018061269], [-70.53435149008716, -33.38163409878281, 572.2905755260489], [-70.53127660197545, -33.3798635584972, 575.6553946823129], [-70.52819087331174, -33.37808217765957, 560.8808260951987], [-70.52509743761509, -33.376293089789016, 579.6680284013454]]}, "properties": {"name": "Av. Vitacura", "highway": "primary", "width": 0.00015, "lanes": 4, "elevation": 570.0}}, {"type": "Feature", "geometry": {"type": "LineString", "coordinates": [[-70.582, -33.4245, 584.139407197403], [-70.58035026202256, -33.422650262022565, 570.7684249527816], [-70.57870364926517, -33.42080364926518, 555.1081318804042], [-70.5770630905788, -33.41896309057881, 572.8342181765465], [-70.5754311344149, -33.4171311344149, 562.7670100290354], [-70.57380978869674, -33.415309788696746, 546.948285098332], [-70.5722003946543, -33.413500394654314, 566.8514763629652], [-70.57060354254985, -33.41170354254986, 579.8065857793761], [-70.5690190345895, -33.40991903458951, 571.4675867693858], [-70.56744589735143, -33.408145897351446, 587.5479206434289], [-70.56588244294953, -33.40638244294954, 572.4370876329434], [-70.56432637508945, -33.404626375089464, 549.8187600519365], [-70.56277493335328, -33.40287493335329, 554.5415510924413], [-70.5612250666467, -33.40112506664671, 550.8243664523173], [-70.55967362491053, -33.39937362491054, 554.015073592162], [-70.55811755705045, -33.39761755705046, 574.947436305006], [-70.55655410264855, -33.395854102648556, 560.1334367804966], [-70.55498096541048, -33.394080965410495, 563.5738979701134], [-70.55339645745013, -33.39229645745014, 557.5066687487375], [-70.55179960534568, -33.39049960534569, 587.4127777664376], [-70.55019021130325, -33.388690211303256, 585.0830786672744], [-70.54856886558508, -33.3868688655851, 534.4631305060786], [-70.54693690942118, -33.38503690942119, 541.6986503310214], [-70.54529635073482, -33.38319635073482, 578.9750416204756], [-70.54364973797742, -33.38134973797744, 585.9332256645785]]}, "properties": {"name": "Av. Escuela Militar", "highway": "primary", "width": 0.00012, "lanes": 4, "elevation": 570.0}}, {"type": "Feature", "geometry": {"type": "LineString", "coordinates": [[-70.592, -33.3745, 523.2053745767768], [-70.58839833990206, -33.37619245754911, 600.5683737372698], [-70.58480643734187, -33.37789467263597, 553.1932704414822], [-70.58123273204761, -33.379615084988785, 551.135353513756], [-70.57768320610592, -33.38135967669415, 575.3199678726965], [-70.57416057604783, -33.38313116428313, 574.8371444756979], [-70.57066392596631, -33.38492863184866, 571.1232902460413], [-70.56718883121448, -33.38674765474389, 589.2785287329981], [-70.56372795597879, -33.38858089715526, 580.2378919143744], [-70.5602720440212, -33.39041910284474, 566.6081977475451], [-70.55681116878552, -33.392252345256104, 582.6171695716779], [-70.55333607403368, -33.39407136815134, 588.5900248521054], [-70.54983942395216, -33.39586883571687, 570.3287147606883], [-70.54631679389408, -33.39764032330584, 570.2369304690757], [-70.54276726795239, -33.39938491501121, 566.3596841848532], [-70.53919356265813, -33.40110532736403, 570.0656638358338], [-70.53560166009794, -33.40280754245089, 567.5351080225291]]}, "properties": {"name": "Av. Nueva Constituci\u00f3n", "highway": "secondary", "width": 0.0001, "lanes": 4, "elevation": 570.0}}, {"type": "Feature", "geometry": {"type": "LineString", "coordinates": [[-70.55519071507682, -33.412910364082606, 576.176788532102], [-70.55552940934666, -33.40425529806495, 532.0386190919584]]}, "properties": {"highway": "residential", "width": 5.791694464722263e-05, "lanes": 1, "elevation": 570.0}}, {"type": "Feature", "geometry": {"type": "LineString", "coordinates": [[-70.51983903048506, -33.389339718522315, 572.5927495321129], [-70.52489502936115, -33.384354444122934, 565.235923435036]]}, "properties": {"highway": "residential", "width": 6.786270096892639e-05, "lanes": 2, "elevation": 570.0}}, {"type": "Feature", "geometry": {"type": "LineString", "coordinates": [[-70.57250441484283, -33.41203389427777, 578.4505847071746], [-70.56993555644928, -33.40288880805678, 579.9990367436545]]}, "properties": {"highway": "residential", "width": 5.7298387320372965e-05, "lanes": 1, "elevation": 570.0}}, {"type": "Feature", "geometry": {"type": "LineString", "coordinates": [[-70.54990738225456, -33.398474713790776, 573.8338905756415], [-70.54152462905174, -33.39004744566443, 556.8105698526367]]}, "properties": {"highway": "tertiary", "width": 9.797391713106514e-05, "lanes": 1, "elevation": 570.0}}, {"type": "Feature", "geometry": {"type": "LineString", "coordinates": [[-70.57317983817424, -33.39498552269965, 573.4062152328139], [-70.57953507821256, -33.404020013226585, 560.3614191788953]]}, "properties": {"highway": "tertiary", "width": 9.4230985898496e-05, "lanes": 1, "elevation": 570.0}}, {"type": "Feature", "geometry": {"type": "LineString", "coordinates": [[-70.58032404475188, -33.38476461545122, 561.5165783610724], [-70.58767314167453, -33.38946679793219, 551.9948053816452]]}, "properties": {"highway": "residential", "width": 8.994442591030291e-05, "lanes": 1, "elevation": 570.0}}, {"type": "Feature", "geometry": {"type": "LineString", "coordinates": [[-70.55792907458219, -33.39303162785834, 569.3352100795505], [-70.55268043744617, -33.39131430286124, 555.8127515126636]]}, "properties": {"highway": "tertiary", "width": 8.519271082515483e-05, "lanes": 1, "elevation": 570.0}}, {"type": "Feature", "geometry": {"type": "LineString", "coordinates": [[-70.57145158468792, -33.37903479314547, 555.6726666178321], [-70.58097826621389, -33.371711012323146, 580.1977048934721]]}, "properties": {"highway": "residential", "width": 9.557783484708012e-05, "lanes": 1, "elevation": 570.0}}, {"type": "Feature", "geometry": {"type": "LineString", "coordinates": [[-70.53596506788918, -33.37498077991013, 569.8766523757747], [-70.52988462961923, -33.38370045313698, 543.7489755314762]]}, "properties": {"highway": "tertiary", "width": 8.150944237388466e-05, "lanes": 1, "elevation": 570.0}}, {"type": "Feature", "geometry": {"type": "LineString", "coordinates": [[-70.53843958716, -33.39548751843883, 563.776446007922], [-70.54361388132104, -33.395132718383884, 591.6671983647518]]}, "properties": {"highway": "tertiary", "width": 9.40996597876931e-05, "lanes": 1, "elevation": 570.0}}, {"type": "Feature", "geometry": {"type": "LineString", "coordinates": [[-70.5635193322034, -33.37806537305392, 574.589606439362], [-70.57165325630288, -33.38347235781415, 563.4032412268978]]}, "properties": {"highway": "residential", "width": 6.092597860068593e-05, "lanes": 1, "elevation": 570.0}}, {"type": "Feature", "geometry": {"type": "LineString", "coordinates": [[-70.58436959792982, -33.407650662048674, 593.3117686961352], [-70.57897288940171, -33.417198287615214, 569.9299180027587]]}, "properties": {"highway": "tertiary", "width": 7.409505104215756e-05, "lanes": 2, "elevation": 570.0}}, {"type": "Feature", "geometry": {"type": "LineString", "coordinates": [[-70.52290639159705, -33.40209156996871, 581.7333419710072], [-70.52952419597793, -33.3980137835067, 598.7257436915274]]}, "properties": {"highway": "residential", "width": 7.010960278107721e-05, "lanes": 1, "elevation": 570.0}}, {"type": "Feature", "geometry": {"type": "LineString", "coordinates": [[-70.55456756162093, -33.38973420622656, 557.9934783020459], [-70.54580108418041, -33.39524897097413, 554.6643088585259]]}, "properties": {"highway": "residential", "width": 6.81536332571542e-05, "lanes": 2, "elevation": 570.0}}, {"type": "Feature", "geometry": {"type": "LineString", "coordinates": [[-70.5782294453907, -33.38247946381744, 557.5823763784638], [-70.5867263786091, -33.38690950622172, 541.8263387602632]]}, "properties": {"highway": "tertiary", "width": 9.153893921206087e-05, "lanes": 1, "elevation": 570.0}}, {"type": "Feature", "geometry": {"type": "LineString", "coordinates": [[-70.52581069753595, -33.41234505648023, 544.6516081874355], [-70.52618133833346, -33.41098781260082, 555.9045321794525]]}, "properties": {"highway": "residential", "width": 7.201198089739896e-05, "lanes": 2, "elevation": 570.0}}, {"type": "Feature", "geometry": {"type": "LineString", "coordinates": [[-70.5408382578776, -33.38799646795049, 587.7081147212707], [-70.53109803660129, -33.393891343733145, 569.8890443049061]]}, "properties": {"highway": "residential", "width": 7.640423226183313e-05, "lanes": 2, "elevation": 570.0}}, {"type": "Feature", "geometry": {"type": "LineString", "coordinates": [[-70.5700953669471, -33.39523182667435, 550.1493930629726], [-70.56262751524208, -33.385769032424825, 565.1461815800465]]}, "properties": {"highway": "tertiary", "width": 7.26597076148219e-05, "lanes": 2, "elevation": 570.0}}, {"type": "Feature", "geometry": {"type": "LineString", "coordinates": [[-70.55897801043648, -33.395177813570406, 572.4336972943745], [-70.56812586434499, -33.39281684834626, 568.7782770771889]]}, "properties": {"highway": "residential", "width": 5.713486814754151e-05, "lanes": 1, "elevation": 570.0}}, {"type": "Feature", "geometry": {"type": "LineString", "coordinates": [[-70.56530441978829, -33.407076300188734, 559.4341887327898], [-70.56961378318206, -33.40339981325757, 565.0293705407429]]}, "properties": {"highway": "residential", "width": 7.546507205891768e-05, "lanes": 1, "elevation": 570.0}}, {"type": "Feature", "geometry": {"type": "LineString", "coordinates": [[-70.54228403949308, -33.38593657902823, 582.2743835212336], [-70.53307653682577, -33.39151395753434, 576.0165365811943]]}, "properties": {"highway": "residential", "width": 8.630928402310774e-05, "lanes": 2, "elevation": 570.0}}, {"type": "Feature", "geometry": {"type": "LineString", "coordinates": [[-70.58164670405525, -33.38270714053225, 602.8880627153303], [-70.57309576495244, -33.37942255892823, 561.2922441379471]]}, "properties": {"highway": "residential", "width": 5.981847358533844e-05, "lanes": 2, "elevation": 570.0}}, {"type": "Feature", "geometry": {"type": "LineString", "coordinates": [[-70.58564963381048, -33.38974827779985, 575.1416439143818], [-70.58173927525654, -33.39562704486827, 553.293156588886]]}, "properties": {"highway": "residential", "width": 5.213806440776645e-05, "lanes": 1, "elevation": 570.0}}, {"type": "Feature", "geometry": {"type": "LineString", "coordinates": [[-70.57214810634004, -33.387913968757545, 568.9261993670025], [-70.57134183334837, -33.395689608235195, 562.5754913122149]]}, "properties": {"highway": "tertiary", "width": 6.255613674135176e-05, "lanes": 1, "elevation": 570.0}}, {"type": "Feature", "geometry": {"type": "LineString", "coordinates": [[-70.52597328846876, -33.401466161163306, 586.1877745946441], [-70.5253735103534, -33.39779292990785, 588.1675472104262]]}, "properties": {"highway": "residential", "width": 6.470533797967422e-05, "lanes": 2, "elevation": 570.0}}, {"type": "Feature", "geometry": {"type": "LineString", "coordinates": [[-70.58366969996817, -33.37610397451692, 583.0804159767648], [-70.58227173410194, -33.36631377532289, 557.217298416796]]}, "properties": {"highway": "tertiary", "width": 8.458331381772232e-05, "lanes": 1, "elevation": 570.0}}, {"type": "Feature", "geometry": {"type": "LineString", "coordinates": [[-70.5605893448821, -33.39094559498244, 595.0591028801389], [-70.55960473177117, -33.399713824113384, 564.1220156204207]]}, "properties": {"highway": "tertiary", "width": 8.744645223481283e-05, "lanes": 1, "elevation": 570.0}}, {"type": "Feature", "geometry": {"type": "LineString", "coordinates": [[-70.53273378083558, -33.39851951458032, 569.1341182988499], [-70.53180377574189, -33.396262342774804, 559.6598072457119]]}, "properties": {"highway": "residential", "width": 6.371937266948054e-05, "lanes": 2, "elevation": 570.0}}, {"type": "Feature", "geometry": {"type": "LineString", "coordinates": [[-70.56205447119322, -33.40160246597165, 585.905325113311], [-70.55727057762763, -33.40849451252802, 585.0131486414821]]}, "properties": {"highway": "residential", "width": 8.974584547173032e-05, "lanes": 1, "elevation": 570.0}}, {"type": "Feature", "geometry": {"type": "LineString", "coordinates": [[-70.54451503235822, -33.37547199970144, 599.8610444733251], [-70.54302222388023, -33.38137169625825, 576.1795375895474]]}, "properties": {"highway": "tertiary", "width": 6.593940710802198e-05, "lanes": 2, "elevation": 570.0}}, {"type": "Feature", "geometry": {"type": "LineString", "coordinates": [[-70.5228034591036, -33.37451966119825, 572.038257566118], [-70.52588346193313, -33.37676086328893, 559.8811586556719]]}, "properties": {"highway": "tertiary", "width": 7.314054674024221e-05, "lanes": 2, "elevation": 570.0}}, {"type": "Feature", "geometry": {"type": "LineString", "coordinates": [[-70.53858208937184, -33.38686211028802, 571.8817443158792], [-70.53474614701308, -33.38025902561895, 586.6571324415974]]}, "properties": {"highway": "residential", "width": 8.588109848417408e-05, "lanes": 1, "elevation": 570.0}}, {"type": "Feature", "geometry": {"type": "LineString", "coordinates": [[-70.54731163419594, -33.39344022063107, 563.5436187581755], [-70.53928019368273, -33.39178763778182, 582.6769010555709]]}, "properties": {"highway": "residential", "width": 5.410043826357758e-05, "lanes": 1, "elevation": 570.0}}, {"type": "Feature", "geometry": {"type": "LineString", "coordinates": [[-70.53638419750749, -33.39401743231693, 576.2374544615238], [-70.53031788418402, -33.40167019479252, 572.6925326807376]]}, "properties": {"highway": "tertiary", "width": 5.83278037793073e-05, "lanes": 1, "elevation": 570.0}}, {"type": "Feature", "geometry": {"type": "LineString", "coordinates": [[-70.5714995882393, -33.398945988221854, 598.7595336990729], [-70.57566454404423, -33.3928674084766, 566.9556808526529]]}, "properties": {"highway": "residential", "width": 7.85970984178495e-05, "lanes": 2, "elevation": 570.0}}, {"type": "Feature", "geometry": {"type": "LineString", "coordinates": [[-70.58000689342892, -33.389497552642545, 544.3592544588859], [-70.57140390583635, -33.39188000010161, 556.9409424518568]]}, "properties": {"highway": "tertiary", "width": 6.774137202790444e-05, "lanes": 2, "elevation": 570.0}}, {"type": "Feature", "geometry": {"type": "LineString", "coordinates": [[-70.58385287056258, -33.396325510025285, 567.1937755141822], [-70.58162728631315, -33.40164635818823, 606.9433337990516]]}, "properties": {"highway": "residential", "width": 8.688550481311211e-05, "lanes": 1, "elevation": 570.0}}, {"type": "Feature", "geometry": {"type": "LineString", "coordinates": [[-70.57935665086778, -33.376872794167085, 563.7340922765827], [-70.57239325814056, -33.377254744876936, 548.0833433864094]]}, "properties": {"highway": "residential", "width": 5.8067589846897005e-05, "lanes": 1, "elevation": 570.0}}, {"type": "Feature", "geometry": {"type": "LineString", "coordinates": [[-70.56553332802457, -33.40426414856735, 570.2509300624263], [-70.56357357265473, -33.40035689213312, 590.3721988624774]]}, "properties": {"highway": "tertiary", "width": 8.783648563218059e-05, "lanes": 2, "elevation": 570.0}}, {"type": "Feature", "geometry": {"type": "LineString", "coordinates": [[-70.57522553679728, -33.38160322047622, 568.0353548884912], [-70.5780251321555, -33.39074588905265, 565.6083483656081]]}, "properties": {"highway": "tertiary", "width": 6.910523356881525e-05, "lanes": 1, "elevation": 570.0}}, {"type": "Feature", "geometry": {"type": "LineString", "coordinates": [[-70.5542645097687, -33.382390466567024, 578.8352957737137], [-70.55765747956151, -33.3804540611722, 598.1475242545594]]}, "properties": {"highway": "tertiary", "width": 6.57264763920347e-05, "lanes": 1, "elevation": 570.0}}, {"type": "Feature", "geometry": {"type": "LineString", "coordinates": [[-70.58266925810233, -33.41176559976605, 582.0245494773042], [-70.5729667550017, -33.40621845505891, 586.0248867481424]]}, "properties": {"highway": "residential", "width": 5.007884900167353e-05, "lanes": 2, "elevation": 570.0}}, {"type": "Feature", "geometry": {"type": "LineString", "coordinates": [[-70.57143728182716, -33.40298352654037, 565.9172205597334], [-70.58079117266108, -33.393938200179264, 553.8918624532762]]}, "properties": {"highway": "tertiary", "width": 7.60938756788809e-05, "lanes": 2, "elevation": 570.0}}, {"type": "Feature", "geometry": {"type": "LineString", "coordinates": [[-70.54513019547747, -33.38627046814654, 560.6783003933226], [-70.53808053801862, -33.39195422274297, 575.4154484410388]]}, "properties": {"highway": "residential", "width": 6.046841941431551e-05, "lanes": 1, "elevation": 570.0}}, {"type": "Feature", "geometry": {"type": "LineString", "coordinates": [[-70.56103681086057, -33.39459584756254, 570.1567730637787], [-70.56464925585976, -33.38510797259456, 569.1335683841563]]}, "properties": {"highway": "residential", "width": 8.229291786436037e-05, "lanes": 1, "elevation": 570.0}}, {"type": "Feature", "geometry": {"type": "LineString", "coordinates": [[-70.58259343384516, -33.41019041976083, 567.888074026248], [-70.57361039594642, -33.40293332450831, 579.0166097656029]]}, "properties": {"highway": "tertiary", "width": 5.665280916275673e-05, "lanes": 1, "elevation": 570.0}}, {"type": "Feature", "geometry": {"type": "LineString", "coordinates": [[-70.57259503130445, -33.41373750733551, 561.4822632581382], [-70.56523728410384, -33.409517398159174, 548.2145439960132]]}, "properties": {"highway": "tertiary", "width": 6.986712646920952e-05, "lanes": 2, "elevation": 570.0}}, {"type": "Feature", "geometry": {"type": "LineString", "coordinates": [[-70.54953209669131, -33.3762245569998, 570.2105767574478], [-70.5436271088635, -33.37647861560521, 575.8433812034024]]}, "properties": {"highway": "tertiary", "width": 7.547884169638135e-05, "lanes": 2, "elevation": 570.0}}, {"type": "Feature", "geometry": {"type": "LineString", "coordinates": [[-70.57966788383052, -33.38603786566656, 540.8728665301347], [-70.585594127881, -33.39497356475645, 573.1340241225877]]}, "properties": {"highway": "tertiary", "width": 8.685367362442611e-05, "lanes": 2, "elevation": 570.0}}, {"type": "Feature", "geometry": {"type": "LineString", "coordinates": [[-70.54936101840497, -33.38488957847398, 583.9403810319589], [-70.54626997905453, -33.39133909963513, 552.3308842030846]]}, "properties": {"highway": "residential", "width": 6.030315963435026e-05, "lanes": 1, "elevation": 570.0}}, {"type": "Feature", "geometry": {"type": "LineString", "coordinates": [[-70.54495820964497, -33.38648236772881, 573.0962498095523], [-70.55481894537303, -33.38398637440837, 581.8677806612839]]}, "properties": {"highway": "tertiary", "width": 8.057516475041483e-05, "lanes": 2, "elevation": 570.0}}, {"type": "Feature", "geometry": {"type": "LineString", "coordinates": [[-70.5741419382415, -33.383533473247944, 572.884357715896], [-70.5687078649452, -33.37475202292875, 553.096342784992]]}, "properties": {"highway": "tertiary", "width": 5.9128635157454844e-05, "lanes": 2, "elevation": 570.0}}, {"type": "Feature", "geometry": {"type": "LineString", "coordinates": [[-70.526234513574, -33.37828913684867, 556.4400919196715], [-70.52988625809341, -33.375193261352976, 576.5301841463923]]}, "properties": {"highway": "tertiary", "width": 8.518474389619129e-05, "lanes": 2, "elevation": 570.0}}, {"type": "Feature", "geometry": {"type": "LineString", "coordinates": [[-70.56460440069583, -33.40929938795095, 578.0953127464579], [-70.56150563357927, -33.40597917441208, 585.7814311305143]]}, "properties": {"highway": "residential", "width": 9.709915567076186e-05, "lanes": 2, "elevation": 570.0}}, {"type": "Feature", "geometry": {"type": "LineString", "coordinates": [[-70.57990768189191, -33.3977098241852, 566.3086161146722], [-70.58787717980113, -33.40368037887187, 569.4932143034832]]}, "properties": {"highway": "residential", "width": 5.600857421780319e-05, "lanes": 1, "elevation": 570.0}}, {"type": "Feature", "geometry": {"type": "LineString", "coordinates": [[-70.54903642627747, -33.39031465510382, 577.4166577493758], [-70.54246907629692, -33.38937262348352, 592.1044701890812]]}, "properties": {"highway": "tertiary", "width": 8.55970827873282e-05, "lanes": 2, "elevation": 570.0}}, {"type": "Feature", "geometry": {"type": "LineString", "coordinates": [[-70.57087150506821, -33.39089226598608, 564.7264698994145], [-70.56428591335441, -33.38101795537321, 573.4710210993971]]}, "properties": {"highway": "tertiary", "width": 8.509943953522532e-05, "lanes": 1, "elevation": 570.0}}, {"type": "Feature", "geometry": {"type": "LineString", "coordinates": [[-70.55059099003631, -33.41264434859421, 581.1738987844582], [-70.5482999634264, -33.42215346455026, 558.9294112893831]]}, "properties": {"highway": "tertiary", "width": 5.534330513115252e-05, "lanes": 2, "elevation": 570.0}}, {"type": "Feature", "geometry": {"type": "LineString", "coordinates": [[-70.53451215802093, -33.396935611182656, 583.0793748268416], [-70.53583071546835, -33.39914794012105, 573.4742563602895]]}, "properties": {"highway": "residential", "width": 7.684694856098409e-05, "lanes": 2, "elevation": 570.0}}, {"type": "Feature", "geometry": {"type": "LineString", "coordinates": [[-70.58318238674029, -33.40560795183203, 574.7971774805611], [-70.58682106190206, -33.407213466116914, 579.9401361693065]]}, "properties": {"highway": "residential", "width": 7.948780852480972e-05, "lanes": 2, "elevation": 570.0}}, {"type": "Feature", "geometry": {"type": "LineString", "coordinates": [[-70.53785818671587, -33.37464821707433, 561.584091698391], [-70.54587001760927, -33.36919079194118, 539.5816199799475]]}, "properties": {"highway": "residential", "width": 5.128782300122576e-05, "lanes": 2, "elevation": 570.0}}, {"type": "Feature", "geometry": {"type": "LineString", "coordinates": [[-70.54684420985619, -33.4132851276278, 579.4091594518551], [-70.53773805095754, -33.413699299490126, 577.1477889898636]]}, "properties": {"highway": "residential", "width": 5.25962866409939e-05, "lanes": 1, "elevation": 570.0}}, {"type": "Feature", "geometry": {"type": "LineString", "coordinates": [[-70.5252378701497, -33.39499143875233, 566.7464539316028], [-70.52654959745699, -33.401978596338374, 581.0231647376171]]}, "properties": {"highway": "tertiary", "width": 6.542041570647031e-05, "lanes": 1, "elevation": 570.0}}, {"type": "Feature", "geometry": {"type": "LineString", "coordinates": [[-70.55172333208783, -33.37642867840958, 602.0365681140122], [-70.55584001935756, -33.384924572676624, 561.7825463035385]]}, "properties": {"highway": "residential", "width": 6.579430603474637e-05, "lanes": 2, "elevation": 570.0}}, {"type": "Feature", "geometry": {"type": "LineString", "coordinates": [[-70.52746201827267, -33.38141400012007, 577.4197770917666], [-70.52104913743197, -33.384576516782325, 557.4235370386076]]}, "properties": {"highway": "residential", "width": 7.824988682793112e-05, "lanes": 1, "elevation": 570.0}}, {"type": "Feature", "geometry": {"type": "LineString", "coordinates": [[-70.54090194557267, -33.396970907835666, 573.5897938181015], [-70.54571273070587, -33.40517583199585, 531.8591072904004]]}, "properties": {"highway": "tertiary", "width": 5.111307707508458e-05, "lanes": 2, "elevation": 570.0}}, {"type": "Feature", "geometry": {"type": "LineString", "coordinates": [[-70.58370468267167, -33.38526747854177, 545.3458627493436], [-70.5838439662201, -33.386615609168196, 555.845100788205]]}, "properties": {"highway": "residential", "width": 7.36939597967135e-05, "lanes": 2, "elevation": 570.0}}, {"type": "Feature", "geometry": {"type": "LineString", "coordinates": [[-70.5537742712362, -33.39095846413618, 573.2207895330253], [-70.5450831948557, -33.38319411154508, 589.738614993152]]}, "properties": {"highway": "tertiary", "width": 8.000640260280742e-05, "lanes": 2, "elevation": 570.0}}, {"type": "Feature", "geometry": {"type": "LineString", "coordinates": [[-70.53988370193639, -33.395629367064835, 563.7210581423207], [-70.54406491616656, -33.3939249907747, 553.8260368538737]]}, "properties": {"highway": "residential", "width": 8.72551541029633e-05, "lanes": 2, "elevation": 570.0}}, {"type": "Feature", "geometry": {"type": "LineString", "coordinates": [[-70.58096727962149, -33.387322206684466, 564.182774308693], [-70.58477267836322, -33.38362951728981, 542.615821105363]]}, "properties": {"highway": "tertiary", "width": 6.461462590663676e-05, "lanes": 2, "elevation": 570.0}}, {"type": "Feature", "geometry": {"type": "LineString", "coordinates": [[-70.5340230272939, -33.38451412118876, 567.112960106073], [-70.52596227752868, -33.37994614359283, 586.4292479934604]]}, "properties": {"highway": "residential", "width": 8.851417315343481e-05, "lanes": 2, "elevation": 570.0}}, {"type": "Feature", "geometry": {"type": "LineString", "coordinates": [[-70.58030841260839, -33.40928261675705, 561.1428809040898], [-70.57927828907339, -33.41858776909973, 570.3215257360459]]}, "properties": {"highway": "residential", "width": 6.448258038298792e-05, "lanes": 2, "elevation": 570.0}}, {"type": "Feature", "geometry": {"type": "LineString", "coordinates": [[-70.58466005564655, -33.408661551801636, 587.351815738949], [-70.57740288952905, -33.41544708020976, 576.2514199524494]]}, "properties": {"highway": "residential", "width": 6.0342307552554244e-05, "lanes": 2, "elevation": 570.0}}, {"type": "Feature", "geometry": {"type": "LineString", "coordinates": [[-70.55562798668709, -33.38073738284821, 566.7447923022135], [-70.56294752310733, -33.37112026198861, 555.1751591603085]]}, "properties": {"highway": "residential", "width": 7.545872423451335e-05, "lanes": 2, "elevation": 570.0}}, {"type": "Feature", "geometry": {"type": "LineString", "coordinates": [[-70.5647306209736, -33.37921135778345, 599.5777970270046], [-70.5582253679163, -33.379664714741686, 593.1818175577015]]}, "properties": {"highway": "residential", "width": 8.869528881349408e-05, "lanes": 2, "elevation": 570.0}}, {"type": "Feature", "geometry": {"type": "LineString", "coordinates": [[-70.54187437935633, -33.38515930986124, 560.8054371032723], [-70.54137043676084, -33.3830745161715, 572.4792619897806]]}, "properties": {"highway": "residential", "width": 7.96039184812911e-05, "lanes": 2, "elevation": 570.0}}, {"type": "Feature", "geometry": {"type": "LineString", "coordinates": [[-70.55309501096347, -33.405653142640176, 584.5238488884014], [-70.55443669300526, -33.4127964444368, 554.1394427293396]]}, "properties": {"highway": "tertiary", "width": 7.750301526299452e-05, "lanes": 1, "elevation": 570.0}}, {"type": "Feature", "geometry": {"type": "LineString", "coordinates": [[-70.54597285948078, -33.385716659588375, 563.8235624582547], [-70.54632056612783, -33.37594056846723, 581.9887497495893]]}, "properties": {"highway": "tertiary", "width": 9.109131029953985e-05, "lanes": 2, "elevation": 570.0}}, {"type": "Feature", "geometry": {"type": "LineString", "coordinates": [[-70.52106663663606, -33.389385575004084, 575.3985029010513], [-70.51639087040463, -33.38898769589133, 567.5995958548448]]}, "properties": {"highway": "tertiary", "width": 9.55403012877592e-05, "lanes": 1, "elevation": 570.0}}, {"type": "Feature", "geometry": {"type": "LineString", "coordinates": [[-70.56455630900062, -33.41054096978774, 573.129113761507], [-70.57437422707173, -33.407900785793636, 552.7733442676081]]}, "properties": {"highway": "tertiary", "width": 9.644705988973665e-05, "lanes": 2, "elevation": 570.0}}, {"type": "Feature", "geometry": {"type": "LineString", "coordinates": [[-70.54728182457502, -33.4085916434461, 559.3512625155328], [-70.54215867474892, -33.415905511953774, 575.9163420712431]]}, "properties": {"highway": "residential", "width": 5.15131599980455e-05, "lanes": 1, "elevation": 570.0}}, {"type": "Feature", "geometry": {"type": "LineString", "coordinates": [[-70.54952161947467, -33.41205594867738, 571.2599881735142], [-70.54806125990268, -33.4064738479102, 560.9115107571639]]}, "properties": {"highway": "residential", "width": 5.200258639773181e-05, "lanes": 1, "elevation": 570.0}}, {"type": "Feature", "geometry": {"type": "LineString", "coordinates": [[-70.55859895844681, -33.384035354939286, 580.8042558414364], [-70.5590814688659, -33.384542507469654, 550.5617716052005]]}, "properties": {"highway": "tertiary", "width": 6.688230494228738e-05, "lanes": 1, "elevation": 570.0}}, {"type": "Feature", "geometry": {"type": "LineString", "coordinates": [[-70.52466724982136, -33.41053746490223, 562.2177728690328], [-70.52770577172264, -33.41889409824788, 577.4913057384335]]}, "properties": {"highway": "residential", "width": 5.714357615837186e-05, "lanes": 2, "elevation": 570.0}}, {"type": "Feature", "geometry": {"type": "LineString", "coordinates": [[-70.54313489793975, -33.399609277884146, 591.8186527203923], [-70.53602543916807, -33.40597769197876, 565.3393822095655]]}, "properties": {"highway": "residential", "width": 5.539810844934902e-05, "lanes": 2, "elevation": 570.0}}, {"type": "Feature", "geometry": {"type": "LineString", "coordinates": [[-70.51956019779601, -33.4053678483344, 572.6304964114546], [-70.52768341640774, -33.395500287614944, 542.326075611092]]}, "properties": {"highway": "tertiary", "width": 6.898227215354583e-05, "lanes": 2, "elevation": 570.0}}, {"type": "Feature", "geometry": {"type": "LineString", "coordinates": [[-70.52833172649804, -33.38614892315002, 548.2533774303537], [-70.53355510842864, -33.376365831844836, 572.0808698972332]]}, "properties": {"highway": "tertiary", "width": 8.389972435260035e-05, "lanes": 2, "elevation": 570.0}}, {"type": "Feature", "geometry": {"type": "LineString", "coordinates": [[-70.56277355738042, -33.38825600910499, 562.0783702596543], [-70.56266419578868, -33.3799726983566, 560.8474620131514]]}, "properties": {"highway": "tertiary", "width": 8.19636911879545e-05, "lanes": 1, "elevation": 570.0}}, {"type": "Feature", "geometry": {"type": "LineString", "coordinates": [[-70.57298882528048, -33.37670070117869, 570.0139575675447], [-70.58101593773246, -33.37766856663906, 558.2019437444973]]}, "properties": {"highway": "residential", "width": 5.92110166637667e-05, "lanes": 2, "elevation": 570.0}}, {"type": "Feature", "geometry": {"type": "LineString", "coordinates": [[-70.52310989898727, -33.3873212304889, 568.0110766650165], [-70.53028703789326, -33.38313326018919, 554.2670016768996]]}, "properties": {"highway": "residential", "width": 9.779138781771856e-05, "lanes": 2, "elevation": 570.0}}, {"type": "Feature", "geometry": {"type": "LineString", "coordinates": [[-70.58545820681475, -33.39561953389135, 588.3071783374348], [-70.59372997468104, -33.39416454205567, 578.3139480922368]]}, "properties": {"highway": "residential", "width": 7.841932807846309e-05, "lanes": 1, "elevation": 570.0}}, {"type": "Feature", "geometry": {"type": "LineString", "coordinates": [[-70.56583578379026, -33.388728119120124, 589.0081599061159], [-70.55869146932174, -33.394613697249056, 571.3976394440986]]}, "properties": {"highway": "tertiary", "width": 9.01681260867327e-05, "lanes": 2, "elevation": 570.0}}, {"type": "Feature", "geometry": {"type": "LineString", "coordinates": [[-70.56134754708329, -33.38029643273947, 579.0092646906646], [-70.5543487608791, -33.38079646837044, 548.3506566750489]]}, "properties": {"highway": "residential", "width": 5.810683793853852e-05, "lanes": 2, "elevation": 570.0}}, {"type": "Feature", "geometry": {"type": "LineString", "coordinates": [[-70.53007150532916, -33.41155360830724, 584.6290582698614], [-70.53856622051906, -33.41370849938899, 560.9421149682338]]}, "properties": {"highway": "tertiary", "width": 6.165570562914361e-05, "lanes": 2, "elevation": 570.0}}, {"type": "Feature", "geometry": {"type": "LineString", "coordinates": [[-70.575340574486, -33.38191353481184, 611.7079222381108], [-70.5752509645999, -33.390996602129455, 582.8482043465318]]}, "properties": {"highway": "tertiary", "width": 5.816072172628217e-05, "lanes": 2, "elevation": 570.0}}, {"type": "Feature", "geometry": {"type": "LineString", "coordinates": [[-70.53114652720201, -33.39845544756318, 582.0403563028157], [-70.53945175706508, -33.392273990318024, 566.4262486321481]]}, "properties": {"highway": "tertiary", "width": 6.550220060792876e-05, "lanes": 2, "elevation": 570.0}}, {"type": "Feature", "geometry": {"type": "LineString", "coordinates": [[-70.57819287113355, -33.406964935056656, 572.8471647726375], [-70.57749701662055, -33.41104415064609, 554.8421515660297]]}, "properties": {"highway": "residential", "width": 7.234697575756463e-05, "lanes": 1, "elevation": 570.0}}, {"type": "Feature", "geometry": {"type": "LineString", "coordinates": [[-70.54334158302112, -33.40196422430456, 564.1800339750889], [-70.53838983151498, -33.39751272178143, 557.9198358739372]]}, "properties": {"highway": "residential", "width": 6.28676076509028e-05, "lanes": 1, "elevation": 570.0}}, {"type": "Feature", "geometry": {"type": "LineString", "coordinates": [[-70.53553244402278, -33.41249674683368, 552.4269207136268], [-70.53710534442826, -33.404695890616466, 547.7701589023734]]}, "properties": {"highway": "tertiary", "width": 7.646833968292507e-05, "lanes": 1, "elevation": 570.0}}, {"type": "Feature", "geometry": {"type": "LineString", "coordinates": [[-70.56325152938408, -33.376872155653174, 540.9760937807305], [-70.56331060234648, -33.37402279522117, 559.8901171305905]]}, "properties": {"highway": "residential", "width": 7.367628585215974e-05, "lanes": 2, "elevation": 570.0}}, {"type": "Feature", "geometry": {"type": "LineString", "coordinates": [[-70.58096110015173, -33.390727616482316, 581.3591091556003], [-70.58858273134565, -33.39922211118905, 563.3372121688644]]}, "properties": {"highway": "residential", "width": 8.13480878545671e-05, "lanes": 2, "elevation": 570.0}}, {"type": "Feature", "geometry": {"type": "LineString", "coordinates": [[-70.52278046430659, -33.40922818433121, 580.1982990721289], [-70.52398071640474, -33.414128419776894, 576.5900748539436]]}, "properties": {"highway": "tertiary", "width": 6.52558330360728e-05, "lanes": 1, "elevation": 570.0}}, {"type": "Feature", "geometry": {"type": "LineString", "coordinates": [[-70.57809367822288, -33.378030405864195, 595.3885074041668], [-70.57100024247148, -33.37777229187002, 583.3575740515465]]}, "properties": {"highway": "residential", "width": 8.617328126286645e-05, "lanes": 1, "elevation": 570.0}}, {"type": "Feature", "geometry": {"type": "LineString", "coordinates": [[-70.58022517606408, -33.40521150238723, 601.2780043885592], [-70.57163170870037, -33.39773899769547, 564.564814049115]]}, "properties": {"highway": "residential", "width": 8.684383979798603e-05, "lanes": 1, "elevation": 570.0}}, {"type": "Feature", "geometry": {"type": "LineString", "coordinates": [[-70.54436182665542, -33.389585134121816, 586.677311749844], [-70.55161727749176, -33.39635362333943, 560.6394538096403]]}, "properties": {"highway": "tertiary", "width": 7.277071025337491e-05, "lanes": 1, "elevation": 570.0}}, {"type": "Feature", "geometry": {"type": "LineString", "coordinates": [[-70.54120290874053, -33.390829336552386, 579.3873591169205], [-70.54333100465817, -33.381490757652614, 570.5204280156711]]}, "properties": {"highway": "residential", "width": 9.192548620888572e-05, "lanes": 1, "elevation": 570.0}}, {"type": "Feature", "geometry": {"type": "LineString", "coordinates": [[-70.56636768629694, -33.410087781536056, 563.6376175524981], [-70.56315390247279, -33.41340001475992, 564.495466049477]]}, "properties": {"highway": "tertiary", "width": 7.288337226799006e-05, "lanes": 1, "elevation": 570.0}}, {"type": "Feature", "geometry": {"type": "LineString", "coordinates": [[-70.54355805793267, -33.40444096657519, 579.5306335471025], [-70.54288393324703, -33.41233603191516, 576.2349204894415]]}, "properties": {"highway": "residential", "width": 7.87409166397719e-05, "lanes": 2, "elevation": 570.0}}, {"type": "Feature", "geometry": {"type": "LineString", "coordinates": [[-70.57253328269911, -33.4061952185341, 580.8073111596833], [-70.5779726778797, -33.40267696430953, 577.9056552293995]]}, "properties": {"highway": "tertiary", "width": 8.471898090616414e-05, "lanes": 1, "elevation": 570.0}}, {"type": "Feature", "geometry": {"type": "LineString", "coordinates": [[-70.54263048320736, -33.41309069344974, 598.684936994069], [-70.5465618673157, -33.410090029876564, 574.4012099722538]]}, "properties": {"highway": "tertiary", "width": 5.1404430486134056e-05, "lanes": 2, "elevation": 570.0}}, {"type": "Feature", "geometry": {"type": "LineString", "coordinates": [[-70.58597632659472, -33.38775094588128, 579.8639814155289], [-70.57636566546613, -33.38735445612746, 554.081283623582]]}, "properties": {"highway": "residential", "width": 8.515126090690732e-05, "lanes": 1, "elevation": 570.0}}, {"type": "Feature", "geometry": {"type": "LineString", "coordinates": [[-70.51820242124758, -33.37930018438596, 571.1157179279717], [-70.51628577322302, -33.38905561701319, 553.5529251647027]]}, "properties": {"highway": "residential", "width": 5.390558720827382e-05, "lanes": 1, "elevation": 570.0}}, {"type": "Feature", "geometry": {"type": "LineString", "coordinates": [[-70.52069866187541, -33.380425660087994, 572.6348254544787], [-70.52125015226702, -33.38267872320289, 562.7735161905275]]}, "properties": {"highway": "tertiary", "width": 8.705048284707949e-05, "lanes": 2, "elevation": 570.0}}, {"type": "Feature", "geometry": {"type": "LineString", "coordinates": [[-70.57907172878089, -33.3805627148821, 534.5512418983756], [-70.57862761724824, -33.37828753594699, 595.8349810460361]]}, "properties": {"highway": "residential", "width": 7.468089250697853e-05, "lanes": 2, "elevation": 570.0}}, {"type": "Feature", "geometry": {"type": "LineString", "coordinates": [[-70.54175723653952, -33.39176076066483, 556.695007909242], [-70.5510731916398, -33.388454800488454, 564.8284951646161]]}, "properties": {"highway": "tertiary", "width": 9.606978739156111e-05, "lanes": 2, "elevation": 570.0}}, {"type": "Feature", "geometry": {"type": "LineString", "coordinates": [[-70.55203235568746, -33.39578125421448, 571.8295661372325], [-70.55324166634614, -33.39160127783288, 600.3102878104336]]}, "properties": {"highway": "tertiary", "width": 7.340587512639872e-05, "lanes": 2, "elevation": 570.0}}, {"type": "Feature", "geometry": {"type": "LineString", "coordinates": [[-70.56773263373398, -33.380207234647706, 570.859973031306], [-70.57407746064453, -33.37885336256891, 552.937757942335]]}, "properties": {"highway": "residential", "width": 7.811503962723584e-05, "lanes": 2, "elevation": 570.0}}, {"type": "Feature", "geometry": {"type": "LineString", "coordinates": [[-70.57964251701925, -33.41380023597272, 545.4244664165152], [-70.58401403157855, -33.416562577657416, 557.5279693603528]]}, "properties": {"highway": "residential", "width": 5.9741418503736145e-05, "lanes": 1, "elevation": 570.0}}, {"type": "Feature", "geometry": {"type": "LineString", "coordinates": [[-70.56425671638563, -33.40629363867519, 579.9197026539698], [-70.56827515931468, -33.40668173640961, 576.7450286555755]]}, "properties": {"highway": "residential", "width": 6.0502399810393334e-05, "lanes": 1, "elevation": 570.0}}, {"type": "Feature", "geometry": {"type": "LineString", "coordinates": [[-70.5659266985973, -33.37608147455295, 577.415388683338], [-70.56136541968725, -33.3766753026667, 562.8211188525439]]}, "properties": {"highway": "tertiary", "width": 6.762520288673929e-05, "lanes": 1, "elevation": 570.0}}, {"type": "Feature", "geometry": {"type": "LineString", "coordinates": [[-70.53490437870683, -33.388933052043456, 572.6304036641858], [-70.53859503183457, -33.394943249071495, 565.0066664087843]]}, "properties": {"highway": "residential", "width": 5.573021082940869e-05, "lanes": 2, "elevation": 570.0}}, {"type": "Feature", "geometry": {"type": "LineString", "coordinates": [[-70.53227639608232, -33.37757767156284, 583.0947003239702], [-70.53793788661868, -33.37375896595236, 553.1288640298811]]}, "properties": {"highway": "residential", "width": 9.804433851406433e-05, "lanes": 1, "elevation": 570.0}}, {"type": "Feature", "geometry": {"type": "LineString", "coordinates": [[-70.55336341574906, -33.38811282471043, 550.673649604829], [-70.54796048478401, -33.382565539497215, 592.0875703088241]]}, "properties": {"highway": "tertiary", "width": 7.26487713560201e-05, "lanes": 1, "elevation": 570.0}}, {"type": "Feature", "geometry": {"type": "LineString", "coordinates": [[-70.57119571154709, -33.40861200068774, 549.9655885900537], [-70.57450512550265, -33.418343998839475, 556.429182727873]]}, "properties": {"highway": "tertiary", "width": 7.403596719997608e-05, "lanes": 1, "elevation": 570.0}}, {"type": "Feature", "geometry": {"type": "LineString", "coordinates": [[-70.51914219222552, -33.41219841037324, 557.8747792915187], [-70.52241654127896, -33.407149885276645, 584.7571921299502]]}, "properties": {"highway": "residential", "width": 8.783068211453744e-05, "lanes": 2, "elevation": 570.0}}, {"type": "Feature", "geometry": {"type": "LineString", "coordinates": [[-70.55505618434015, -33.399858849081426, 593.213978390247], [-70.55965005962744, -33.406890081006296, 553.071499629897]]}, "properties": {"highway": "tertiary", "width": 5.7343679343879134e-05, "lanes": 2, "elevation": 570.0}}, {"type": "Feature", "geometry": {"type": "LineString", "coordinates": [[-70.5380023575163, -33.37913604170145, 590.828117380542], [-70.53032558649942, -33.38077951952332, 584.488542003436]]}, "properties": {"highway": "tertiary", "width": 5.3836367780923254e-05, "lanes": 1, "elevation": 570.0}}, {"type": "Feature", "geometry": {"type": "LineString", "coordinates": [[-70.53852777905084, -33.40916983960008, 588.0533070373217], [-70.53742318153114, -33.40119782041794, 562.7937243108242]]}, "properties": {"highway": "residential", "width": 9.896656632427164e-05, "lanes": 1, "elevation": 570.0}}, {"type": "Feature", "geometry": {"type": "LineString", "coordinates": [[-70.52416583056831, -33.40749199567323, 598.1460314580557], [-70.5156548574438, -33.39754648434322, 564.8288792490158]]}, "properties": {"highway": "residential", "width": 5.1797293858336447e-05, "lanes": 2, "elevation": 570.0}}, {"type": "Feature", "geometry": {"type": "LineString", "coordinates": [[-70.58310890078441, -33.39631962739181, 556.4250882750212], [-70.5855582317218, -33.406170038315, 579.5324153682365]]}, "properties": {"highway": "tertiary", "width": 6.91907484013319e-05, "lanes": 1, "elevation": 570.0}}, {"type": "Feature", "geometry": {"type": "LineString", "coordinates": [[-70.5474670915417, -33.384180336165976, 554.5871674746988], [-70.54280411581844, -33.382200239790286, 542.86818773996]]}, "properties": {"highway": "residential", "width": 5.2665514000793586e-05, "lanes": 1, "elevation": 570.0}}, {"type": "Feature", "geometry": {"type": "LineString", "coordinates": [[-70.541103314663, -33.398121026075415, 549.7243185390093], [-70.54981291325954, -33.4070439267806, 563.7824480877639]]}, "properties": {"highway": "residential", "width": 9.892924449436837e-05, "lanes": 1, "elevation": 570.0}}, {"type": "Feature", "geometry": {"type": "LineString", "coordinates": [[-70.55233849298432, -33.38558649441715, 574.3097499588785], [-70.54865016926414, -33.39293638538834, 544.2831221671]]}, "properties": {"highway": "residential", "width": 9.71205381217932e-05, "lanes": 2, "elevation": 570.0}}, {"type": "Feature", "geometry": {"type": "LineString", "coordinates": [[-70.5781142830917, -33.402570875962326, 563.5099804648097], [-70.57213874024784, -33.410403846633464, 578.3418742430753]]}, "properties": {"highway": "tertiary", "width": 7.478521413208904e-05, "lanes": 1, "elevation": 570.0}}, {"type": "Feature", "geometry": {"type": "LineString", "coordinates": [[-70.51827143575368, -33.382455350332734, 562.8440469485345], [-70.52516434109631, -33.374649591277475, 593.7928044483689]]}, "properties": {"highway": "residential", "width": 6.38628893863935e-05, "lanes": 2, "elevation": 570.0}}, {"type": "Feature", "geometry": {"type": "LineString", "coordinates": [[-70.57766538138821, -33.401359330238606, 567.9412246820154], [-70.57542234818735, -33.3996327529314, 556.3760302274525]]}, "properties": {"highway": "residential", "width": 9.28322350814009e-05, "lanes": 2, "elevation": 570.0}}, {"type": "Feature", "geometry": {"type": "LineString", "coordinates": [[-70.56346280679446, -33.408600880775126, 572.5856537720773], [-70.56294047656502, -33.40242970155911, 555.3632957168651]]}, "properties": {"highway": "residential", "width": 9.46013044379247e-05, "lanes": 2, "elevation": 570.0}}, {"type": "Feature", "geometry": {"type": "LineString", "coordinates": [[-70.57705472547114, -33.412363381113906, 575.8861018118939], [-70.58648546880343, -33.402753750825674, 531.6456593366802]]}, "properties": {"highway": "residential", "width": 6.015704811393974e-05, "lanes": 1, "elevation": 570.0}}, {"type": "Feature", "geometry": {"type": "LineString", "coordinates": [[-70.52959442713389, -33.379122636862505, 571.5751550505532], [-70.5283865857823, -33.38826553917083, 582.313966070655]]}, "properties": {"highway": "residential", "width": 9.411192119782368e-05, "lanes": 2, "elevation": 570.0}}, {"type": "Feature", "geometry": {"type": "LineString", "coordinates": [[-70.57967142261417, -33.4113720708468, 581.7456035021053], [-70.58760820283484, -33.42075304926677, 595.6705719931356]]}, "properties": {"highway": "residential", "width": 6.0514641663867036e-05, "lanes": 1, "elevation": 570.0}}, {"type": "Feature", "geometry": {"type": "LineString", "coordinates": [[-70.53762585658096, -33.38580534410434, 568.472064865952], [-70.5324887777868, -33.38619089473571, 557.5578155204355]]}, "properties": {"highway": "tertiary", "width": 7.476720401086496e-05, "lanes": 2, "elevation": 570.0}}, {"type": "Feature", "geometry": {"type": "LineString", "coordinates": [[-70.57785495160171, -33.41388455008745, 571.4825078940644], [-70.58263350103526, -33.419949495067414, 572.6519336850278]]}, "properties": {"highway": "tertiary", "width": 8.845976236408125e-05, "lanes": 1, "elevation": 570.0}}, {"type": "Feature", "geometry": {"type": "LineString", "coordinates": [[-70.53834936876258, -33.37634275153898, 574.4986919139226], [-70.54028056711572, -33.38178222122267, 579.6781650497308]]}, "properties": {"highway": "residential", "width": 5.814514903837369e-05, "lanes": 1, "elevation": 570.0}}, {"type": "Feature", "geometry": {"type": "LineString", "coordinates": [[-70.55772068817991, -33.405990935012966, 589.0740536192594], [-70.55943951446577, -33.39814133973223, 559.9331054586808]]}, "properties": {"highway": "residential", "width": 9.586439950492124e-05, "lanes": 1, "elevation": 570.0}}, {"type": "Feature", "geometry": {"type": "LineString", "coordinates": [[-70.53092254038668, -33.38959826384597, 564.0976322706376], [-70.52315898601783, -33.3866627032696, 586.1398925752413]]}, "properties": {"highway": "residential", "width": 8.413202009265507e-05, "lanes": 2, "elevation": 570.0}}, {"type": "Feature", "geometry": {"type": "LineString", "coordinates": [[-70.54959929471613, -33.39189735605618, 595.1775713937394], [-70.54548872276433, -33.39750519798414, 605.7928683148037]]}, "properties": {"highway": "residential", "width": 8.874771606506255e-05, "lanes": 2, "elevation": 570.0}}, {"type": "Feature", "geometry": {"type": "LineString", "coordinates": [[-70.57082644309014, -33.40725905411791, 595.4749918504633], [-70.57525272118114, -33.4029385312743, 565.827849408829]]}, "properties": {"highway": "tertiary", "width": 5.365206831872259e-05, "lanes": 2, "elevation": 570.0}}]}